{
  "type": "FeatureCollection",
  "generator": "overpass-turbo",
  "copyright": "The data included in this document is from www.openstreetmap.org. The data is made available under ODbL.",
  "timestamp": "2026-05-02T09:32:15Z",
  "features": [
    {
      "type": "Feature",
      "properties": {
        "@id": "relation/16036440",
        "colour": "#20409A",
        "from": "Dukuh Atas",
        "name": "Cibubur Line (Dukuh Atas → Harjamukti)",
        "name:id": "Lin Cibubur (Dukuh Atas → Harjamukti)",
        "network": "Jabodebek LRT",
        "operator": "Kereta Api Indonesia Divisi LRT Jabodebek",
        "public_transport:version": "2",
        "ref": "CB",
        "route": "light_rail",
        "to": "Harjamukti",
        "type": "route",
        "wikidata": "Q56390365"
      },
      "geometry": {
        "type": "LineString",
        "coordinates": [
          [
            106.8255247,
            -6.2048511
          ],
          [
            106.826366,
            -6.2050271
          ],
          [
            106.8268403,
            -6.2051263
          ],
          [
            106.8271736,
            -6.2051909
          ],
          [
            106.8273892,
            -6.2052263
          ],
          [
            106.8277938,
            -6.205282
          ],
          [
            106.8279233,
            -6.2053061
          ],
          [
            106.8280454,
            -6.2053412
          ],
          [
            106.8281601,
            -6.2053871
          ],
          [
            106.8282735,
            -6.2054525
          ],
          [
            106.8283672,
            -6.2055283
          ],
          [
            106.8284462,
            -6.2056141
          ],
          [
            106.8285338,
            -6.2057505
          ],
          [
            106.828604,
            -6.2058894
          ],
          [
            106.8286647,
            -6.2060228
          ],
          [
            106.8287298,
            -6.2061401
          ],
          [
            106.8288455,
            -6.2063054
          ],
          [
            106.8289857,
            -6.2064723
          ],
          [
            106.8291178,
            -6.2066157
          ],
          [
            106.8292152,
            -6.2067403
          ],
          [
            106.8293211,
            -6.2069201
          ],
          [
            106.8295218,
            -6.207332
          ],
          [
            106.8296866,
            -6.2076933
          ],
          [
            106.8298133,
            -6.2079986
          ],
          [
            106.8299156,
            -6.2082785
          ],
          [
            106.830015,
            -6.2085742
          ],
          [
            106.8300791,
            -6.2087958
          ],
          [
            106.8301381,
            -6.2090399
          ],
          [
            106.8302046,
            -6.2093481
          ],
          [
            106.8302686,
            -6.2097029
          ],
          [
            106.830309,
            -6.2099764
          ],
          [
            106.8303605,
            -6.2104851
          ],
          [
            106.8304011,
            -6.2110213
          ],
          [
            106.8304172,
            -6.2112923
          ],
          [
            106.8304229,
            -6.2118348
          ],
          [
            106.8304043,
            -6.2126844
          ],
          [
            106.8304122,
            -6.2129547
          ],
          [
            106.8304295,
            -6.2132301
          ],
          [
            106.8306742,
            -6.21618
          ],
          [
            106.830701,
            -6.216442
          ],
          [
            106.8307497,
            -6.2167327
          ],
          [
            106.8308398,
            -6.2171773
          ],
          [
            106.8310379,
            -6.218067
          ],
          [
            106.8312024,
            -6.2186473
          ],
          [
            106.8314742,
            -6.2194958
          ],
          [
            106.8316174,
            -6.2198349
          ],
          [
            106.8319067,
            -6.220487
          ],
          [
            106.8319797,
            -6.2206608
          ],
          [
            106.8320321,
            -6.2208728
          ],
          [
            106.8320557,
            -6.2209883
          ],
          [
            106.83222,
            -6.2216446
          ],
          [
            106.8325308,
            -6.2228859
          ],
          [
            106.8327514,
            -6.2236436
          ],
          [
            106.8328049,
            -6.2238598
          ],
          [
            106.8328431,
            -6.2240561
          ],
          [
            106.8328676,
            -6.2242356
          ],
          [
            106.8328863,
            -6.2244439
          ],
          [
            106.8329738,
            -6.2257292
          ],
          [
            106.8329951,
            -6.2260267
          ],
          [
            106.8331817,
            -6.2287874
          ],
          [
            106.8332254,
            -6.2293488
          ],
          [
            106.833227,
            -6.229665
          ],
          [
            106.8332142,
            -6.229855
          ],
          [
            106.8331923,
            -6.2300416
          ],
          [
            106.8331567,
            -6.2302196
          ],
          [
            106.8330997,
            -6.2304165
          ],
          [
            106.8329555,
            -6.2309151
          ],
          [
            106.8328837,
            -6.2311294
          ],
          [
            106.8328284,
            -6.2312843
          ],
          [
            106.8327679,
            -6.2314389
          ],
          [
            106.8326883,
            -6.2315974
          ],
          [
            106.8325262,
            -6.2319284
          ],
          [
            106.8324567,
            -6.2320546
          ],
          [
            106.8323768,
            -6.2321871
          ],
          [
            106.8322841,
            -6.2323316
          ],
          [
            106.8321676,
            -6.2324932
          ],
          [
            106.8319988,
            -6.2326938
          ],
          [
            106.831824,
            -6.2329033
          ],
          [
            106.8316473,
            -6.2330993
          ],
          [
            106.8314811,
            -6.2332698
          ],
          [
            106.8311815,
            -6.2335322
          ],
          [
            106.8308596,
            -6.2337675
          ],
          [
            106.8305917,
            -6.2339454
          ],
          [
            106.8302687,
            -6.2341245
          ],
          [
            106.8292535,
            -6.234585
          ],
          [
            106.8289902,
            -6.2347189
          ],
          [
            106.8288647,
            -6.2347951
          ],
          [
            106.8287577,
            -6.2348654
          ],
          [
            106.828619,
            -6.2349704
          ],
          [
            106.8285054,
            -6.2350629
          ],
          [
            106.8284166,
            -6.2351426
          ],
          [
            106.8281995,
            -6.2353633
          ],
          [
            106.8280426,
            -6.2355389
          ],
          [
            106.8279165,
            -6.2356999
          ],
          [
            106.8278251,
            -6.2358343
          ],
          [
            106.827583,
            -6.2362119
          ],
          [
            106.8275183,
            -6.2363239
          ],
          [
            106.8274685,
            -6.2364294
          ],
          [
            106.8274258,
            -6.2365476
          ],
          [
            106.8273934,
            -6.2366751
          ],
          [
            106.8273802,
            -6.2368092
          ],
          [
            106.8273803,
            -6.2369181
          ],
          [
            106.8274026,
            -6.2370652
          ],
          [
            106.8274363,
            -6.2371792
          ],
          [
            106.8274862,
            -6.2373028
          ],
          [
            106.8275464,
            -6.2374074
          ],
          [
            106.8276196,
            -6.2375109
          ],
          [
            106.8277142,
            -6.2376123
          ],
          [
            106.8278186,
            -6.237695
          ],
          [
            106.8279479,
            -6.2377813
          ],
          [
            106.8283399,
            -6.2380214
          ],
          [
            106.8285556,
            -6.2381454
          ],
          [
            106.8287949,
            -6.2382738
          ],
          [
            106.829531,
            -6.2386291
          ],
          [
            106.829723,
            -6.2387289
          ],
          [
            106.8303192,
            -6.2390903
          ],
          [
            106.830702,
            -6.2393284
          ],
          [
            106.8309283,
            -6.2394736
          ],
          [
            106.8315271,
            -6.2398885
          ],
          [
            106.8317796,
            -6.2400538
          ],
          [
            106.831977,
            -6.2401697
          ],
          [
            106.8324444,
            -6.2404314
          ],
          [
            106.8326831,
            -6.2405576
          ],
          [
            106.8329275,
            -6.2406655
          ],
          [
            106.8331444,
            -6.2407487
          ],
          [
            106.833335,
            -6.2408117
          ],
          [
            106.8335467,
            -6.240873
          ],
          [
            106.8350273,
            -6.2412634
          ],
          [
            106.8361917,
            -6.2415527
          ],
          [
            106.83695,
            -6.2417425
          ],
          [
            106.8378185,
            -6.2419782
          ],
          [
            106.8385115,
            -6.2421686
          ],
          [
            106.8390817,
            -6.2423185
          ],
          [
            106.8399344,
            -6.2425499
          ],
          [
            106.840192,
            -6.2426239
          ],
          [
            106.8404829,
            -6.2427044
          ],
          [
            106.8412373,
            -6.2428992
          ],
          [
            106.8414358,
            -6.2429659
          ],
          [
            106.8416369,
            -6.2430417
          ],
          [
            106.8424266,
            -6.2433936
          ],
          [
            106.842634,
            -6.2434771
          ],
          [
            106.8428247,
            -6.2435402
          ],
          [
            106.8430233,
            -6.2436004
          ],
          [
            106.843259,
            -6.243645
          ],
          [
            106.8434727,
            -6.2436685
          ],
          [
            106.8460244,
            -6.2438049
          ],
          [
            106.846314,
            -6.2438041
          ],
          [
            106.846778,
            -6.2437889
          ],
          [
            106.84801,
            -6.2436703
          ],
          [
            106.8485075,
            -6.2436402
          ],
          [
            106.8488762,
            -6.243622
          ],
          [
            106.8496508,
            -6.2436037
          ],
          [
            106.8500329,
            -6.2435839
          ],
          [
            106.8519107,
            -6.2434577
          ],
          [
            106.8522804,
            -6.2434509
          ],
          [
            106.8556012,
            -6.2434632
          ],
          [
            106.857072,
            -6.2435043
          ],
          [
            106.8579256,
            -6.2435218
          ],
          [
            106.8582865,
            -6.2435287
          ],
          [
            106.8585572,
            -6.2435308
          ],
          [
            106.8588964,
            -6.2435351
          ],
          [
            106.8592647,
            -6.2435346
          ],
          [
            106.8597395,
            -6.2435288
          ],
          [
            106.8600673,
            -6.2435247
          ],
          [
            106.8607094,
            -6.2435083
          ],
          [
            106.8611041,
            -6.2434912
          ],
          [
            106.8616789,
            -6.2434633
          ],
          [
            106.8622424,
            -6.2434405
          ],
          [
            106.8627757,
            -6.2434223
          ],
          [
            106.863092,
            -6.2434241
          ],
          [
            106.8633979,
            -6.2434347
          ],
          [
            106.8636487,
            -6.2434438
          ],
          [
            106.8638045,
            -6.2434523
          ],
          [
            106.8639697,
            -6.2434643
          ],
          [
            106.8641018,
            -6.2434786
          ],
          [
            106.8641659,
            -6.2434873
          ],
          [
            106.8642295,
            -6.2434971
          ],
          [
            106.8645217,
            -6.2435465
          ],
          [
            106.8650436,
            -6.2436436
          ],
          [
            106.8652922,
            -6.2437051
          ],
          [
            106.8655419,
            -6.2437754
          ],
          [
            106.865802,
            -6.2438584
          ],
          [
            106.8667088,
            -6.2441707
          ],
          [
            106.8670568,
            -6.244301
          ],
          [
            106.8673736,
            -6.2444316
          ],
          [
            106.8695594,
            -6.2453671
          ],
          [
            106.86963,
            -6.2453984
          ],
          [
            106.8697709,
            -6.2454609
          ],
          [
            106.8700338,
            -6.2455669
          ],
          [
            106.8701555,
            -6.2456107
          ],
          [
            106.8703778,
            -6.2456861
          ],
          [
            106.8705317,
            -6.245735
          ],
          [
            106.8707509,
            -6.2457963
          ],
          [
            106.8712235,
            -6.245926
          ],
          [
            106.8723757,
            -6.2462225
          ],
          [
            106.872859,
            -6.2463535
          ],
          [
            106.8729611,
            -6.2463786
          ],
          [
            106.8733116,
            -6.2464611
          ],
          [
            106.87358,
            -6.2465401
          ],
          [
            106.8736716,
            -6.2465753
          ],
          [
            106.873739,
            -6.2466068
          ],
          [
            106.8738151,
            -6.2466425
          ],
          [
            106.8738866,
            -6.2466837
          ],
          [
            106.8745395,
            -6.2472439
          ],
          [
            106.8753787,
            -6.2479302
          ],
          [
            106.8756075,
            -6.2481763
          ],
          [
            106.8756923,
            -6.2482944
          ],
          [
            106.8757494,
            -6.248405
          ],
          [
            106.8757853,
            -6.2485474
          ],
          [
            106.8757993,
            -6.2486511
          ],
          [
            106.8757944,
            -6.2487643
          ],
          [
            106.8757754,
            -6.2488776
          ],
          [
            106.8757415,
            -6.2489837
          ],
          [
            106.8756797,
            -6.2491157
          ],
          [
            106.8756205,
            -6.249209
          ],
          [
            106.8754184,
            -6.2494703
          ],
          [
            106.8752415,
            -6.2496576
          ],
          [
            106.875052,
            -6.2498315
          ],
          [
            106.8746329,
            -6.2502285
          ],
          [
            106.8743025,
            -6.2505561
          ],
          [
            106.8737892,
            -6.2510396
          ],
          [
            106.8734274,
            -6.2513899
          ],
          [
            106.8731529,
            -6.2516714
          ],
          [
            106.8730056,
            -6.2518847
          ],
          [
            106.8728515,
            -6.2521266
          ],
          [
            106.8726264,
            -6.2525391
          ],
          [
            106.8725238,
            -6.252803
          ],
          [
            106.8717152,
            -6.2548851
          ],
          [
            106.8716553,
            -6.2550751
          ],
          [
            106.8716305,
            -6.2552796
          ],
          [
            106.871633,
            -6.2554469
          ],
          [
            106.8716626,
            -6.2555989
          ],
          [
            106.8717307,
            -6.2557789
          ],
          [
            106.8718149,
            -6.2559277
          ],
          [
            106.871864,
            -6.2559952
          ],
          [
            106.8719832,
            -6.2561288
          ],
          [
            106.8727702,
            -6.2567197
          ],
          [
            106.8729187,
            -6.2568919
          ],
          [
            106.8730285,
            -6.2570493
          ],
          [
            106.8730837,
            -6.2571881
          ],
          [
            106.8731257,
            -6.2573379
          ],
          [
            106.8733856,
            -6.2587398
          ],
          [
            106.8734434,
            -6.2591176
          ],
          [
            106.8734608,
            -6.2595883
          ],
          [
            106.8734615,
            -6.259937
          ],
          [
            106.8732285,
            -6.2637481
          ],
          [
            106.8731994,
            -6.2642754
          ],
          [
            106.8732343,
            -6.2646738
          ],
          [
            106.8733567,
            -6.2655787
          ],
          [
            106.8734088,
            -6.2661673
          ],
          [
            106.8734137,
            -6.266723
          ],
          [
            106.8733787,
            -6.2670748
          ],
          [
            106.8730544,
            -6.2689035
          ],
          [
            106.8729896,
            -6.2695442
          ],
          [
            106.8729639,
            -6.2701652
          ],
          [
            106.8729673,
            -6.2707431
          ],
          [
            106.87298,
            -6.271269
          ],
          [
            106.8730125,
            -6.2720567
          ],
          [
            106.8730675,
            -6.2729144
          ],
          [
            106.8730769,
            -6.2732497
          ],
          [
            106.8731117,
            -6.2735244
          ],
          [
            106.8731612,
            -6.2737689
          ],
          [
            106.8733035,
            -6.2744162
          ],
          [
            106.8736709,
            -6.2760225
          ],
          [
            106.8738594,
            -6.2766391
          ],
          [
            106.8741021,
            -6.2773465
          ],
          [
            106.8745572,
            -6.2784354
          ],
          [
            106.8751059,
            -6.2798178
          ],
          [
            106.8767614,
            -6.2837422
          ],
          [
            106.8770238,
            -6.2843507
          ],
          [
            106.8774933,
            -6.2852726
          ],
          [
            106.8776461,
            -6.2855985
          ],
          [
            106.8777665,
            -6.2858099
          ],
          [
            106.8780274,
            -6.2862529
          ],
          [
            106.8782515,
            -6.2866484
          ],
          [
            106.8783261,
            -6.2868119
          ],
          [
            106.8784176,
            -6.2870361
          ],
          [
            106.8786355,
            -6.2876179
          ],
          [
            106.8787886,
            -6.2880533
          ],
          [
            106.8789087,
            -6.2883333
          ],
          [
            106.8791006,
            -6.2888078
          ],
          [
            106.8793019,
            -6.2894184
          ],
          [
            106.8795309,
            -6.2900978
          ],
          [
            106.8798469,
            -6.291019
          ],
          [
            106.879979,
            -6.2914096
          ],
          [
            106.8803472,
            -6.29241
          ],
          [
            106.8805429,
            -6.2929106
          ],
          [
            106.8807604,
            -6.2934875
          ],
          [
            106.8816019,
            -6.2955604
          ],
          [
            106.8819145,
            -6.2963469
          ],
          [
            106.8820119,
            -6.2966077
          ],
          [
            106.8827828,
            -6.2985149
          ],
          [
            106.8831106,
            -6.2992294
          ],
          [
            106.8832664,
            -6.2997164
          ],
          [
            106.8833538,
            -6.3000796
          ],
          [
            106.8834277,
            -6.3004071
          ],
          [
            106.8837565,
            -6.3021549
          ],
          [
            106.8837853,
            -6.3023438
          ],
          [
            106.8838285,
            -6.3025717
          ],
          [
            106.8838627,
            -6.302794
          ],
          [
            106.8838928,
            -6.30298
          ],
          [
            106.8839365,
            -6.3031077
          ],
          [
            106.8840254,
            -6.3032739
          ],
          [
            106.8841042,
            -6.3033859
          ],
          [
            106.8844285,
            -6.3037939
          ],
          [
            106.8845392,
            -6.3039694
          ],
          [
            106.8845955,
            -6.3040857
          ],
          [
            106.8846439,
            -6.3042335
          ],
          [
            106.8846671,
            -6.3044023
          ],
          [
            106.8846578,
            -6.3045985
          ],
          [
            106.8846208,
            -6.3047773
          ],
          [
            106.8845282,
            -6.3049963
          ],
          [
            106.8841091,
            -6.3058724
          ],
          [
            106.8839202,
            -6.3062797
          ],
          [
            106.883879,
            -6.3064727
          ],
          [
            106.8838666,
            -6.3066023
          ],
          [
            106.8838744,
            -6.3068267
          ],
          [
            106.8838893,
            -6.3069621
          ],
          [
            106.884079,
            -6.3079554
          ],
          [
            106.8842471,
            -6.3089009
          ],
          [
            106.8843581,
            -6.3095525
          ],
          [
            106.8845249,
            -6.3104291
          ],
          [
            106.8845508,
            -6.3105256
          ],
          [
            106.8845833,
            -6.3106153
          ],
          [
            106.8846206,
            -6.3107036
          ],
          [
            106.8846719,
            -6.3108119
          ],
          [
            106.8847369,
            -6.3109355
          ],
          [
            106.8849357,
            -6.3112926
          ],
          [
            106.8850521,
            -6.3115068
          ],
          [
            106.8851143,
            -6.3116408
          ],
          [
            106.8851713,
            -6.3117953
          ],
          [
            106.8852889,
            -6.3121679
          ],
          [
            106.8853891,
            -6.3125752
          ],
          [
            106.8854873,
            -6.3129583
          ],
          [
            106.8856905,
            -6.313951
          ],
          [
            106.885837,
            -6.3146197
          ],
          [
            106.8859483,
            -6.3151309
          ],
          [
            106.8860374,
            -6.3156499
          ],
          [
            106.8862104,
            -6.3166305
          ],
          [
            106.8862863,
            -6.3171096
          ],
          [
            106.8863921,
            -6.3177886
          ],
          [
            106.886513,
            -6.3186518
          ],
          [
            106.8865703,
            -6.319277
          ],
          [
            106.8866164,
            -6.3212118
          ],
          [
            106.8866082,
            -6.3231299
          ],
          [
            106.8866163,
            -6.3237685
          ],
          [
            106.8866286,
            -6.324364
          ],
          [
            106.8866734,
            -6.3264316
          ],
          [
            106.8866815,
            -6.3269284
          ],
          [
            106.8867634,
            -6.3282827
          ],
          [
            106.8867885,
            -6.3291214
          ],
          [
            106.8868341,
            -6.3299195
          ],
          [
            106.8869399,
            -6.3309766
          ],
          [
            106.8870217,
            -6.3316245
          ],
          [
            106.8879256,
            -6.3371454
          ],
          [
            106.8879846,
            -6.3374786
          ],
          [
            106.8880543,
            -6.3377772
          ],
          [
            106.8881777,
            -6.3382011
          ],
          [
            106.8883064,
            -6.3386223
          ],
          [
            106.8883976,
            -6.3390115
          ],
          [
            106.8886229,
            -6.3401658
          ],
          [
            106.8890038,
            -6.3421731
          ],
          [
            106.8892291,
            -6.343378
          ],
          [
            106.8897656,
            -6.3462411
          ],
          [
            106.8898272,
            -6.3465343
          ],
          [
            106.8899775,
            -6.3470888
          ],
          [
            106.8906641,
            -6.349544
          ],
          [
            106.8908304,
            -6.3501971
          ],
          [
            106.8911871,
            -6.3514633
          ],
          [
            106.8916914,
            -6.3532227
          ],
          [
            106.8918903,
            -6.3540522
          ],
          [
            106.8922251,
            -6.3550434
          ],
          [
            106.892378,
            -6.3556059
          ],
          [
            106.8925926,
            -6.3565309
          ],
          [
            106.8926784,
            -6.3569547
          ],
          [
            106.8931773,
            -6.3598577
          ],
          [
            106.8934751,
            -6.3615797
          ],
          [
            106.8936923,
            -6.3632591
          ],
          [
            106.8940008,
            -6.3655329
          ],
          [
            106.8940464,
            -6.3658075
          ],
          [
            106.8941081,
            -6.3660501
          ],
          [
            106.8941832,
            -6.3662633
          ],
          [
            106.894446,
            -6.3669537
          ],
          [
            106.8945211,
            -6.3672043
          ],
          [
            106.8945721,
            -6.3674282
          ],
          [
            106.8946606,
            -6.3679533
          ],
          [
            106.8949664,
            -6.369798
          ],
          [
            106.8951353,
            -6.3710321
          ],
          [
            106.8952078,
            -6.371536
          ],
          [
            106.8953767,
            -6.372445
          ],
          [
            106.8955377,
            -6.373274
          ],
          [
            106.8956519,
            -6.3738957
          ]
        ]
      },
      "id": "relation/16036440"
    },
    {
      "type": "Feature",
      "properties": {
        "@id": "node/11040189468",
        "@relations": [
          {
            "role": "stop",
            "rel": 16036440,
            "reltags": {
              "colour": "#20409A",
              "from": "Dukuh Atas",
              "name": "Cibubur Line (Dukuh Atas → Harjamukti)",
              "name:id": "Lin Cibubur (Dukuh Atas → Harjamukti)",
              "network": "Jabodebek LRT",
              "operator": "Kereta Api Indonesia Divisi LRT Jabodebek",
              "public_transport:version": "2",
              "ref": "CB",
              "route": "light_rail",
              "to": "Harjamukti",
              "type": "route",
              "wikidata": "Q56390365"
            }
          }
        ]
      },
      "geometry": {
        "type": "Point",
        "coordinates": [
          106.8956519,
          -6.3738957
        ]
      },
      "id": "node/11040189468"
    },
    {
      "type": "Feature",
      "properties": {
        "@id": "node/11040189470",
        "@relations": [
          {
            "role": "stop",
            "rel": 16036440,
            "reltags": {
              "colour": "#20409A",
              "from": "Dukuh Atas",
              "name": "Cibubur Line (Dukuh Atas → Harjamukti)",
              "name:id": "Lin Cibubur (Dukuh Atas → Harjamukti)",
              "network": "Jabodebek LRT",
              "operator": "Kereta Api Indonesia Divisi LRT Jabodebek",
              "public_transport:version": "2",
              "ref": "CB",
              "route": "light_rail",
              "to": "Harjamukti",
              "type": "route",
              "wikidata": "Q56390365"
            }
          }
        ]
      },
      "geometry": {
        "type": "Point",
        "coordinates": [
          106.8866163,
          -6.3237685
        ]
      },
      "id": "node/11040189470"
    },
    {
      "type": "Feature",
      "properties": {
        "@id": "node/11040189486",
        "@relations": [
          {
            "role": "stop",
            "rel": 16036440,
            "reltags": {
              "colour": "#20409A",
              "from": "Dukuh Atas",
              "name": "Cibubur Line (Dukuh Atas → Harjamukti)",
              "name:id": "Lin Cibubur (Dukuh Atas → Harjamukti)",
              "network": "Jabodebek LRT",
              "operator": "Kereta Api Indonesia Divisi LRT Jabodebek",
              "public_transport:version": "2",
              "ref": "CB",
              "route": "light_rail",
              "to": "Harjamukti",
              "type": "route",
              "wikidata": "Q56390365"
            }
          }
        ]
      },
      "geometry": {
        "type": "Point",
        "coordinates": [
          106.8843581,
          -6.3095525
        ]
      },
      "id": "node/11040189486"
    },
    {
      "type": "Feature",
      "properties": {
        "@id": "node/11040189488",
        "@relations": [
          {
            "role": "stop",
            "rel": 16036440,
            "reltags": {
              "colour": "#20409A",
              "from": "Dukuh Atas",
              "name": "Cibubur Line (Dukuh Atas → Harjamukti)",
              "name:id": "Lin Cibubur (Dukuh Atas → Harjamukti)",
              "network": "Jabodebek LRT",
              "operator": "Kereta Api Indonesia Divisi LRT Jabodebek",
              "public_transport:version": "2",
              "ref": "CB",
              "route": "light_rail",
              "to": "Harjamukti",
              "type": "route",
              "wikidata": "Q56390365"
            }
          }
        ]
      },
      "geometry": {
        "type": "Point",
        "coordinates": [
          106.8805429,
          -6.2929106
        ]
      },
      "id": "node/11040189488"
    },
    {
      "type": "Feature",
      "properties": {
        "@id": "node/11040204405",
        "@relations": [
          {
            "role": "stop",
            "rel": 16036440,
            "reltags": {
              "colour": "#20409A",
              "from": "Dukuh Atas",
              "name": "Cibubur Line (Dukuh Atas → Harjamukti)",
              "name:id": "Lin Cibubur (Dukuh Atas → Harjamukti)",
              "network": "Jabodebek LRT",
              "operator": "Kereta Api Indonesia Divisi LRT Jabodebek",
              "public_transport:version": "2",
              "ref": "CB",
              "route": "light_rail",
              "to": "Harjamukti",
              "type": "route",
              "wikidata": "Q56390365"
            }
          }
        ]
      },
      "geometry": {
        "type": "Point",
        "coordinates": [
          106.8385115,
          -6.2421686
        ]
      },
      "id": "node/11040204405"
    },
    {
      "type": "Feature",
      "properties": {
        "@id": "node/11040189504",
        "@relations": [
          {
            "role": "stop",
            "rel": 16036440,
            "reltags": {
              "colour": "#20409A",
              "from": "Dukuh Atas",
              "name": "Cibubur Line (Dukuh Atas → Harjamukti)",
              "name:id": "Lin Cibubur (Dukuh Atas → Harjamukti)",
              "network": "Jabodebek LRT",
              "operator": "Kereta Api Indonesia Divisi LRT Jabodebek",
              "public_transport:version": "2",
              "ref": "CB",
              "route": "light_rail",
              "to": "Harjamukti",
              "type": "route",
              "wikidata": "Q56390365"
            }
          }
        ]
      },
      "geometry": {
        "type": "Point",
        "coordinates": [
          106.8331817,
          -6.2287874
        ]
      },
      "id": "node/11040189504"
    },
    {
      "type": "Feature",
      "properties": {
        "@id": "node/11040189501",
        "@relations": [
          {
            "role": "stop",
            "rel": 16036440,
            "reltags": {
              "colour": "#20409A",
              "from": "Dukuh Atas",
              "name": "Cibubur Line (Dukuh Atas → Harjamukti)",
              "name:id": "Lin Cibubur (Dukuh Atas → Harjamukti)",
              "network": "Jabodebek LRT",
              "operator": "Kereta Api Indonesia Divisi LRT Jabodebek",
              "public_transport:version": "2",
              "ref": "CB",
              "route": "light_rail",
              "to": "Harjamukti",
              "type": "route",
              "wikidata": "Q56390365"
            }
          }
        ]
      },
      "geometry": {
        "type": "Point",
        "coordinates": [
          106.83222,
          -6.2216446
        ]
      },
      "id": "node/11040189501"
    },
    {
      "type": "Feature",
      "properties": {
        "@id": "node/9124369263",
        "@relations": [
          {
            "role": "stop",
            "rel": 16036440,
            "reltags": {
              "colour": "#20409A",
              "from": "Dukuh Atas",
              "name": "Cibubur Line (Dukuh Atas → Harjamukti)",
              "name:id": "Lin Cibubur (Dukuh Atas → Harjamukti)",
              "network": "Jabodebek LRT",
              "operator": "Kereta Api Indonesia Divisi LRT Jabodebek",
              "public_transport:version": "2",
              "ref": "CB",
              "route": "light_rail",
              "to": "Harjamukti",
              "type": "route",
              "wikidata": "Q56390365"
            }
          }
        ]
      },
      "geometry": {
        "type": "Point",
        "coordinates": [
          106.8302046,
          -6.2093481
        ]
      },
      "id": "node/9124369263"
    },
    {
      "type": "Feature",
      "properties": {
        "@id": "node/11040189499",
        "@relations": [
          {
            "role": "stop",
            "rel": 16036440,
            "reltags": {
              "colour": "#20409A",
              "from": "Dukuh Atas",
              "name": "Cibubur Line (Dukuh Atas → Harjamukti)",
              "name:id": "Lin Cibubur (Dukuh Atas → Harjamukti)",
              "network": "Jabodebek LRT",
              "operator": "Kereta Api Indonesia Divisi LRT Jabodebek",
              "public_transport:version": "2",
              "ref": "CB",
              "route": "light_rail",
              "to": "Harjamukti",
              "type": "route",
              "wikidata": "Q56390365"
            }
          }
        ]
      },
      "geometry": {
        "type": "Point",
        "coordinates": [
          106.8255247,
          -6.2048511
        ]
      },
      "id": "node/11040189499"
    },
    {
      "type": "Feature",
      "properties": {
        "@id": "node/11040204408",
        "@relations": [
          {
            "role": "stop",
            "rel": 16036440,
            "reltags": {
              "colour": "#20409A",
              "from": "Dukuh Atas",
              "name": "Cibubur Line (Dukuh Atas → Harjamukti)",
              "name:id": "Lin Cibubur (Dukuh Atas → Harjamukti)",
              "network": "Jabodebek LRT",
              "operator": "Kereta Api Indonesia Divisi LRT Jabodebek",
              "public_transport:version": "2",
              "ref": "CB",
              "route": "light_rail",
              "to": "Harjamukti",
              "type": "route",
              "wikidata": "Q56390365"
            }
          }
        ]
      },
      "geometry": {
        "type": "Point",
        "coordinates": [
          106.857072,
          -6.2435043
        ]
      },
      "id": "node/11040204408"
    },
    {
      "type": "Feature",
      "properties": {
        "@id": "node/9124369397",
        "@relations": [
          {
            "role": "stop",
            "rel": 16036440,
            "reltags": {
              "colour": "#20409A",
              "from": "Dukuh Atas",
              "name": "Cibubur Line (Dukuh Atas → Harjamukti)",
              "name:id": "Lin Cibubur (Dukuh Atas → Harjamukti)",
              "network": "Jabodebek LRT",
              "operator": "Kereta Api Indonesia Divisi LRT Jabodebek",
              "public_transport:version": "2",
              "ref": "CB",
              "route": "light_rail",
              "to": "Harjamukti",
              "type": "route",
              "wikidata": "Q56390365"
            }
          }
        ]
      },
      "geometry": {
        "type": "Point",
        "coordinates": [
          106.8639697,
          -6.2434643
        ]
      },
      "id": "node/9124369397"
    },
    {
      "type": "Feature",
      "properties": {
        "@id": "node/11040204410",
        "@relations": [
          {
            "role": "stop",
            "rel": 16036440,
            "reltags": {
              "colour": "#20409A",
              "from": "Dukuh Atas",
              "name": "Cibubur Line (Dukuh Atas → Harjamukti)",
              "name:id": "Lin Cibubur (Dukuh Atas → Harjamukti)",
              "network": "Jabodebek LRT",
              "operator": "Kereta Api Indonesia Divisi LRT Jabodebek",
              "public_transport:version": "2",
              "ref": "CB",
              "route": "light_rail",
              "to": "Harjamukti",
              "type": "route",
              "wikidata": "Q56390365"
            }
          }
        ]
      },
      "geometry": {
        "type": "Point",
        "coordinates": [
          106.8712235,
          -6.245926
        ]
      },
      "id": "node/11040204410"
    }
  ]
}