{
  "type": "FeatureCollection",
  "generator": "overpass-turbo",
  "copyright": "The data included in this document is from www.openstreetmap.org. The data is made available under ODbL.",
  "timestamp": "2026-05-02T09:31:13Z",
  "features": [
    {
      "type": "Feature",
      "properties": {
        "@id": "relation/16079478",
        "colour": "#0E6938",
        "description": "From Jatimulya to Dukuh Atas",
        "from": "Jatimulya",
        "name": "Bekasi Line (Jatimulya → Dukuh Atas)",
        "name:id": "Lin Bekasi (Jatimulya → Dukuh Atas)",
        "network": "Jabodebek LRT",
        "operator": "PT Kereta Api Indonesia Divisi LRT Jabodebek",
        "public_transport:version": "2",
        "ref": "BK",
        "route": "light_rail",
        "to": "Dukuh Atas",
        "type": "route",
        "wikidata": "Q56390372",
        "wikipedia": "id:Lin Bekasi (LRT Jabodebek)"
      },
      "geometry": {
        "type": "LineString",
        "coordinates": [
          [
            107.0216705,
            -6.2640876
          ],
          [
            107.0209381,
            -6.2638307
          ],
          [
            107.0200631,
            -6.2635238
          ],
          [
            107.0197705,
            -6.2634197
          ],
          [
            107.0180315,
            -6.2628055
          ],
          [
            107.0179613,
            -6.2627809
          ],
          [
            107.0100926,
            -6.2600242
          ],
          [
            107.0083651,
            -6.2594395
          ],
          [
            107.0072138,
            -6.2590037
          ],
          [
            107.004521,
            -6.2580451
          ],
          [
            106.9975451,
            -6.2555484
          ],
          [
            106.9973385,
            -6.2554703
          ],
          [
            106.9971874,
            -6.2554164
          ],
          [
            106.9943812,
            -6.2544556
          ],
          [
            106.9904367,
            -6.2529239
          ],
          [
            106.9869033,
            -6.2512281
          ],
          [
            106.9854461,
            -6.2504369
          ],
          [
            106.983089,
            -6.2493978
          ],
          [
            106.9822521,
            -6.2490909
          ],
          [
            106.9813014,
            -6.2487898
          ],
          [
            106.9807302,
            -6.2486505
          ],
          [
            106.9801245,
            -6.2485526
          ],
          [
            106.979808,
            -6.2485129
          ],
          [
            106.979529,
            -6.248494
          ],
          [
            106.9788501,
            -6.2484699
          ],
          [
            106.9775784,
            -6.2484606
          ],
          [
            106.9770655,
            -6.2484767
          ],
          [
            106.9762309,
            -6.2485599
          ],
          [
            106.9755144,
            -6.2486713
          ],
          [
            106.9748669,
            -6.2488061
          ],
          [
            106.9741192,
            -6.2490039
          ],
          [
            106.9732292,
            -6.2492885
          ],
          [
            106.9724531,
            -6.2495957
          ],
          [
            106.9718626,
            -6.2498631
          ],
          [
            106.9713313,
            -6.2501305
          ],
          [
            106.9706756,
            -6.2504904
          ],
          [
            106.9699891,
            -6.2509116
          ],
          [
            106.9679151,
            -6.2522947
          ],
          [
            106.9655587,
            -6.2536539
          ],
          [
            106.965017,
            -6.253922
          ],
          [
            106.96317,
            -6.2546488
          ],
          [
            106.9625033,
            -6.2549118
          ],
          [
            106.9618875,
            -6.2551356
          ],
          [
            106.9616213,
            -6.2552138
          ],
          [
            106.9613456,
            -6.2552806
          ],
          [
            106.9611059,
            -6.2553187
          ],
          [
            106.9607766,
            -6.2553521
          ],
          [
            106.9597983,
            -6.2554012
          ],
          [
            106.9594737,
            -6.255423
          ],
          [
            106.9591894,
            -6.2554709
          ],
          [
            106.9579463,
            -6.2557561
          ],
          [
            106.9560129,
            -6.2561515
          ],
          [
            106.9556543,
            -6.256204
          ],
          [
            106.9553766,
            -6.2562275
          ],
          [
            106.9544953,
            -6.2562688
          ],
          [
            106.9541369,
            -6.2563001
          ],
          [
            106.9527027,
            -6.2565223
          ],
          [
            106.9518783,
            -6.2565806
          ],
          [
            106.9492415,
            -6.2566946
          ],
          [
            106.9485767,
            -6.2567314
          ],
          [
            106.9462966,
            -6.2568304
          ],
          [
            106.945987,
            -6.256826
          ],
          [
            106.945693,
            -6.2568055
          ],
          [
            106.9438637,
            -6.2566475
          ],
          [
            106.9436364,
            -6.2566427
          ],
          [
            106.9433266,
            -6.256644
          ],
          [
            106.9430165,
            -6.2566722
          ],
          [
            106.9406792,
            -6.2570522
          ],
          [
            106.9403456,
            -6.2570834
          ],
          [
            106.9384446,
            -6.257178
          ],
          [
            106.936904,
            -6.2572557
          ],
          [
            106.9279159,
            -6.257704
          ],
          [
            106.9268765,
            -6.2577725
          ],
          [
            106.9248522,
            -6.2578721
          ],
          [
            106.9224334,
            -6.2580235
          ],
          [
            106.9208597,
            -6.2581035
          ],
          [
            106.9203186,
            -6.2581141
          ],
          [
            106.918098,
            -6.2581795
          ],
          [
            106.9159614,
            -6.2581102
          ],
          [
            106.9153061,
            -6.2580551
          ],
          [
            106.9147939,
            -6.2579745
          ],
          [
            106.9137728,
            -6.2577522
          ],
          [
            106.9131722,
            -6.2576027
          ],
          [
            106.9125867,
            -6.2573995
          ],
          [
            106.9114759,
            -6.2569314
          ],
          [
            106.9110462,
            -6.2567503
          ],
          [
            106.9106163,
            -6.2565692
          ],
          [
            106.910426,
            -6.256489
          ],
          [
            106.9101819,
            -6.2563861
          ],
          [
            106.9099196,
            -6.2562723
          ],
          [
            106.9097802,
            -6.2562118
          ],
          [
            106.9094248,
            -6.2560577
          ],
          [
            106.9089252,
            -6.2558409
          ],
          [
            106.9085574,
            -6.2556814
          ],
          [
            106.9084038,
            -6.2556247
          ],
          [
            106.9076583,
            -6.2553496
          ],
          [
            106.9072488,
            -6.2552025
          ],
          [
            106.9063339,
            -6.2549597
          ],
          [
            106.9054387,
            -6.2546306
          ],
          [
            106.9049522,
            -6.2543951
          ],
          [
            106.9044919,
            -6.2541416
          ],
          [
            106.9041516,
            -6.2539312
          ],
          [
            106.9038686,
            -6.2537459
          ],
          [
            106.9036531,
            -6.2535926
          ],
          [
            106.9033561,
            -6.2533601
          ],
          [
            106.9030706,
            -6.2531206
          ],
          [
            106.9026978,
            -6.2527807
          ],
          [
            106.9023733,
            -6.2524582
          ],
          [
            106.9020752,
            -6.2521294
          ],
          [
            106.901851,
            -6.2518536
          ],
          [
            106.9015713,
            -6.2514809
          ],
          [
            106.9012588,
            -6.2510303
          ],
          [
            106.9008283,
            -6.2502984
          ],
          [
            106.8999256,
            -6.2487209
          ],
          [
            106.8995244,
            -6.2480254
          ],
          [
            106.8984465,
            -6.2465407
          ],
          [
            106.8978185,
            -6.2458691
          ],
          [
            106.8974275,
            -6.2454926
          ],
          [
            106.8967072,
            -6.2449684
          ],
          [
            106.8958614,
            -6.2444547
          ],
          [
            106.8952031,
            -6.2441539
          ],
          [
            106.8945236,
            -6.2439059
          ],
          [
            106.8939113,
            -6.2437282
          ],
          [
            106.8934211,
            -6.2436438
          ],
          [
            106.8929115,
            -6.2435928
          ],
          [
            106.8923204,
            -6.2436016
          ],
          [
            106.8914356,
            -6.2436966
          ],
          [
            106.8910271,
            -6.2437657
          ],
          [
            106.8907322,
            -6.2438342
          ],
          [
            106.890496,
            -6.2439006
          ],
          [
            106.8902633,
            -6.2439727
          ],
          [
            106.8900199,
            -6.2440625
          ],
          [
            106.8896996,
            -6.244205
          ],
          [
            106.8894325,
            -6.2443602
          ],
          [
            106.8891947,
            -6.2445129
          ],
          [
            106.8887547,
            -6.2448136
          ],
          [
            106.8880557,
            -6.245285
          ],
          [
            106.8875319,
            -6.245672
          ],
          [
            106.8872795,
            -6.245852
          ],
          [
            106.8870682,
            -6.2460027
          ],
          [
            106.8864841,
            -6.2463716
          ],
          [
            106.8858349,
            -6.2467378
          ],
          [
            106.8854169,
            -6.2469045
          ],
          [
            106.8850087,
            -6.2470402
          ],
          [
            106.8845388,
            -6.2471449
          ],
          [
            106.8840366,
            -6.2472236
          ],
          [
            106.8837443,
            -6.247242
          ],
          [
            106.8833992,
            -6.2472375
          ],
          [
            106.8813687,
            -6.2471268
          ],
          [
            106.8802906,
            -6.2470749
          ],
          [
            106.8800788,
            -6.2470909
          ],
          [
            106.8797706,
            -6.2471464
          ],
          [
            106.879557,
            -6.2472041
          ],
          [
            106.8793255,
            -6.2472959
          ],
          [
            106.8791429,
            -6.2473895
          ],
          [
            106.8789889,
            -6.2474831
          ],
          [
            106.8784775,
            -6.2478301
          ],
          [
            106.8778028,
            -6.2483084
          ],
          [
            106.8775057,
            -6.2485278
          ],
          [
            106.877208,
            -6.2486615
          ],
          [
            106.877057,
            -6.2487124
          ],
          [
            106.8769049,
            -6.2487442
          ],
          [
            106.8767615,
            -6.2487568
          ],
          [
            106.8765969,
            -6.2487409
          ],
          [
            106.8764181,
            -6.2486788
          ],
          [
            106.8762393,
            -6.2485883
          ],
          [
            106.8760977,
            -6.2484698
          ],
          [
            106.8754023,
            -6.2479146
          ],
          [
            106.8745597,
            -6.247212
          ],
          [
            106.8739294,
            -6.2466628
          ],
          [
            106.8738902,
            -6.2466305
          ],
          [
            106.8738307,
            -6.246592
          ],
          [
            106.8737619,
            -6.2465602
          ],
          [
            106.8736799,
            -6.2465303
          ],
          [
            106.8735983,
            -6.2465044
          ],
          [
            106.8733144,
            -6.2464281
          ],
          [
            106.8729055,
            -6.2463331
          ],
          [
            106.8719864,
            -6.2460909
          ],
          [
            106.8712341,
            -6.2458886
          ],
          [
            106.8705942,
            -6.2457114
          ],
          [
            106.8704111,
            -6.2456578
          ],
          [
            106.8703003,
            -6.2456251
          ],
          [
            106.8701188,
            -6.2455629
          ],
          [
            106.8699691,
            -6.2455068
          ],
          [
            106.8697843,
            -6.2454314
          ],
          [
            106.869225,
            -6.245178
          ],
          [
            106.8680299,
            -6.2446752
          ],
          [
            106.8673921,
            -6.244388
          ],
          [
            106.8670743,
            -6.244257
          ],
          [
            106.866725,
            -6.2441262
          ],
          [
            106.8658171,
            -6.2438135
          ],
          [
            106.8655557,
            -6.2437301
          ],
          [
            106.8653085,
            -6.2436661
          ],
          [
            106.8650521,
            -6.2436096
          ],
          [
            106.8647854,
            -6.2435591
          ],
          [
            106.8645356,
            -6.2435113
          ],
          [
            106.8643998,
            -6.2434865
          ],
          [
            106.8642428,
            -6.2434607
          ],
          [
            106.8641323,
            -6.2434457
          ],
          [
            106.8640531,
            -6.2434371
          ],
          [
            106.8639717,
            -6.2434297
          ],
          [
            106.8638854,
            -6.2434224
          ],
          [
            106.8638105,
            -6.2434167
          ],
          [
            106.8637304,
            -6.243412
          ],
          [
            106.8636494,
            -6.2434085
          ],
          [
            106.8633981,
            -6.2433997
          ],
          [
            106.8630402,
            -6.2433864
          ],
          [
            106.8627763,
            -6.2433833
          ],
          [
            106.8622748,
            -6.2433981
          ],
          [
            106.8616536,
            -6.2434218
          ],
          [
            106.8612314,
            -6.2434448
          ],
          [
            106.8606467,
            -6.243472
          ],
          [
            106.8600674,
            -6.2434889
          ],
          [
            106.8592753,
            -6.2434976
          ],
          [
            106.8589245,
            -6.2434981
          ],
          [
            106.8582228,
            -6.2434923
          ],
          [
            106.8579312,
            -6.2434887
          ],
          [
            106.8570718,
            -6.2434658
          ],
          [
            106.8563322,
            -6.2434397
          ],
          [
            106.8555973,
            -6.243424
          ],
          [
            106.85228,
            -6.2434036
          ],
          [
            106.8519132,
            -6.2434327
          ],
          [
            106.8500436,
            -6.2435553
          ],
          [
            106.8496572,
            -6.243575
          ],
          [
            106.8488895,
            -6.2435933
          ],
          [
            106.8485146,
            -6.2436071
          ],
          [
            106.8480111,
            -6.2436424
          ],
          [
            106.8468411,
            -6.2437549
          ],
          [
            106.8463125,
            -6.2437743
          ],
          [
            106.8460173,
            -6.2437628
          ],
          [
            106.8434849,
            -6.243631
          ],
          [
            106.8433292,
            -6.2436138
          ],
          [
            106.8430445,
            -6.2435614
          ],
          [
            106.8428353,
            -6.2435057
          ],
          [
            106.8426377,
            -6.2434394
          ],
          [
            106.8424431,
            -6.2433642
          ],
          [
            106.8416499,
            -6.2430054
          ],
          [
            106.8414541,
            -6.2429318
          ],
          [
            106.8412479,
            -6.2428679
          ],
          [
            106.8405088,
            -6.2426862
          ],
          [
            106.8402087,
            -6.2426044
          ],
          [
            106.8391763,
            -6.2422919
          ],
          [
            106.8385223,
            -6.2421132
          ],
          [
            106.8378177,
            -6.2419302
          ],
          [
            106.8369617,
            -6.2417074
          ],
          [
            106.8365386,
            -6.2416029
          ],
          [
            106.835039,
            -6.2412176
          ],
          [
            106.8335595,
            -6.2408274
          ],
          [
            106.8333492,
            -6.2407665
          ],
          [
            106.8331605,
            -6.2407042
          ],
          [
            106.8329457,
            -6.2406218
          ],
          [
            106.832704,
            -6.240515
          ],
          [
            106.8324673,
            -6.2403899
          ],
          [
            106.8320008,
            -6.2401287
          ],
          [
            106.8318048,
            -6.2400137
          ],
          [
            106.8315538,
            -6.2398493
          ],
          [
            106.8309548,
            -6.2394343
          ],
          [
            106.8307275,
            -6.2392885
          ],
          [
            106.8303442,
            -6.2390501
          ],
          [
            106.8297464,
            -6.2386877
          ],
          [
            106.8295524,
            -6.2385869
          ],
          [
            106.8288166,
            -6.2382317
          ],
          [
            106.8285788,
            -6.2381041
          ],
          [
            106.8283643,
            -6.2379801
          ],
          [
            106.8280826,
            -6.23781
          ],
          [
            106.8279738,
            -6.2377422
          ],
          [
            106.8278467,
            -6.2376568
          ],
          [
            106.8277467,
            -6.2375775
          ],
          [
            106.8276567,
            -6.2374811
          ],
          [
            106.8275866,
            -6.237382
          ],
          [
            106.8275291,
            -6.2372821
          ],
          [
            106.8274813,
            -6.2371637
          ],
          [
            106.8274492,
            -6.237055
          ],
          [
            106.8274279,
            -6.2369145
          ],
          [
            106.8274278,
            -6.2368115
          ],
          [
            106.8274404,
            -6.2366832
          ],
          [
            106.8274714,
            -6.2365614
          ],
          [
            106.8275125,
            -6.2364475
          ],
          [
            106.8275617,
            -6.2363427
          ],
          [
            106.8276237,
            -6.2362364
          ],
          [
            106.8278649,
            -6.2358603
          ],
          [
            106.827955,
            -6.2357277
          ],
          [
            106.8280792,
            -6.2355692
          ],
          [
            106.8282343,
            -6.2353956
          ],
          [
            106.8284496,
            -6.2351767
          ],
          [
            106.8285364,
            -6.2350988
          ],
          [
            106.8286485,
            -6.2350075
          ],
          [
            106.8287853,
            -6.234904
          ],
          [
            106.8288902,
            -6.234835
          ],
          [
            106.8290135,
            -6.2347602
          ],
          [
            106.8292742,
            -6.2346276
          ],
          [
            106.8302902,
            -6.2341667
          ],
          [
            106.8306165,
            -6.2339858
          ],
          [
            106.8308869,
            -6.2338062
          ],
          [
            106.8312114,
            -6.2335691
          ],
          [
            106.831514,
            -6.2333041
          ],
          [
            106.8316821,
            -6.2331316
          ],
          [
            106.83186,
            -6.2329342
          ],
          [
            106.8320363,
            -6.2327229
          ],
          [
            106.8321925,
            -6.2325111
          ],
          [
            106.8323136,
            -6.2323469
          ],
          [
            106.8324047,
            -6.2322059
          ],
          [
            106.8324897,
            -6.2320724
          ],
          [
            106.8325672,
            -6.2319399
          ],
          [
            106.8327163,
            -6.2315998
          ],
          [
            106.8327909,
            -6.2314511
          ],
          [
            106.8328602,
            -6.2312938
          ],
          [
            106.8329136,
            -6.2311363
          ],
          [
            106.8329858,
            -6.2309218
          ],
          [
            106.8331398,
            -6.2304245
          ],
          [
            106.8331948,
            -6.2302234
          ],
          [
            106.8332275,
            -6.2300428
          ],
          [
            106.8332533,
            -6.2298558
          ],
          [
            106.8332711,
            -6.2296635
          ],
          [
            106.8332601,
            -6.2293378
          ],
          [
            106.8332233,
            -6.2287823
          ],
          [
            106.8330363,
            -6.226066
          ],
          [
            106.8330108,
            -6.2257328
          ],
          [
            106.8329184,
            -6.2244418
          ],
          [
            106.8329027,
            -6.2242321
          ],
          [
            106.8328769,
            -6.2240428
          ],
          [
            106.8328364,
            -6.2238536
          ],
          [
            106.8327855,
            -6.2236297
          ],
          [
            106.8324916,
            -6.2225336
          ],
          [
            106.8322652,
            -6.2216294
          ],
          [
            106.8321016,
            -6.2209757
          ],
          [
            106.8320722,
            -6.2208631
          ],
          [
            106.8320128,
            -6.2206456
          ],
          [
            106.8319361,
            -6.2204639
          ],
          [
            106.8316419,
            -6.2198103
          ],
          [
            106.8315048,
            -6.2194837
          ],
          [
            106.8312145,
            -6.2185842
          ],
          [
            106.8310751,
            -6.2180519
          ],
          [
            106.8308783,
            -6.217141
          ],
          [
            106.8308018,
            -6.2167275
          ],
          [
            106.8307502,
            -6.2164452
          ],
          [
            106.8307216,
            -6.2161745
          ],
          [
            106.830477,
            -6.2132268
          ],
          [
            106.8304597,
            -6.2129525
          ],
          [
            106.8304519,
            -6.2126842
          ],
          [
            106.8304705,
            -6.2118351
          ],
          [
            106.8304648,
            -6.2112907
          ],
          [
            106.8304486,
            -6.2110181
          ],
          [
            106.8304079,
            -6.210481
          ],
          [
            106.8303562,
            -6.2099706
          ],
          [
            106.8303156,
            -6.2096953
          ],
          [
            106.8302513,
            -6.209339
          ],
          [
            106.8301845,
            -6.2090294
          ],
          [
            106.8301251,
            -6.2087837
          ],
          [
            106.8300605,
            -6.2085602
          ],
          [
            106.8299605,
            -6.2082629
          ],
          [
            106.8298577,
            -6.2079815
          ],
          [
            106.8297303,
            -6.2076745
          ],
          [
            106.8295649,
            -6.2073119
          ],
          [
            106.8293631,
            -6.2068978
          ],
          [
            106.8292547,
            -6.2067137
          ],
          [
            106.8291542,
            -6.2065852
          ],
          [
            106.8290215,
            -6.2064411
          ],
          [
            106.8288834,
            -6.2062767
          ],
          [
            106.8287703,
            -6.2061151
          ],
          [
            106.8287073,
            -6.2060016
          ],
          [
            106.828647,
            -6.205869
          ],
          [
            106.8285752,
            -6.2057271
          ],
          [
            106.8284841,
            -6.2055852
          ],
          [
            106.8283999,
            -6.2054938
          ],
          [
            106.8283006,
            -6.2054135
          ],
          [
            106.828181,
            -6.2053445
          ],
          [
            106.8280609,
            -6.2052964
          ],
          [
            106.8279343,
            -6.20526
          ],
          [
            106.8278014,
            -6.2052353
          ],
          [
            106.8273963,
            -6.2051795
          ],
          [
            106.827182,
            -6.2051443
          ],
          [
            106.8268498,
            -6.2050799
          ],
          [
            106.826757,
            -6.2050605
          ],
          [
            106.8255355,
            -6.2048049
          ]
        ]
      },
      "id": "relation/16079478"
    },
    {
      "type": "Feature",
      "properties": {
        "@id": "node/11040204406",
        "@relations": [
          {
            "role": "stop",
            "rel": 16079478,
            "reltags": {
              "colour": "#0E6938",
              "description": "From Jatimulya to Dukuh Atas",
              "from": "Jatimulya",
              "name": "Bekasi Line (Jatimulya → Dukuh Atas)",
              "name:id": "Lin Bekasi (Jatimulya → Dukuh Atas)",
              "network": "Jabodebek LRT",
              "operator": "PT Kereta Api Indonesia Divisi LRT Jabodebek",
              "public_transport:version": "2",
              "ref": "BK",
              "route": "light_rail",
              "to": "Dukuh Atas",
              "type": "route",
              "wikidata": "Q56390372",
              "wikipedia": "id:Lin Bekasi (LRT Jabodebek)"
            }
          }
        ]
      },
      "geometry": {
        "type": "Point",
        "coordinates": [
          106.8385223,
          -6.2421132
        ]
      },
      "id": "node/11040204406"
    },
    {
      "type": "Feature",
      "properties": {
        "@id": "node/11040189503",
        "@relations": [
          {
            "role": "stop",
            "rel": 16079478,
            "reltags": {
              "colour": "#0E6938",
              "description": "From Jatimulya to Dukuh Atas",
              "from": "Jatimulya",
              "name": "Bekasi Line (Jatimulya → Dukuh Atas)",
              "name:id": "Lin Bekasi (Jatimulya → Dukuh Atas)",
              "network": "Jabodebek LRT",
              "operator": "PT Kereta Api Indonesia Divisi LRT Jabodebek",
              "public_transport:version": "2",
              "ref": "BK",
              "route": "light_rail",
              "to": "Dukuh Atas",
              "type": "route",
              "wikidata": "Q56390372",
              "wikipedia": "id:Lin Bekasi (LRT Jabodebek)"
            }
          }
        ]
      },
      "geometry": {
        "type": "Point",
        "coordinates": [
          106.8332233,
          -6.2287823
        ]
      },
      "id": "node/11040189503"
    },
    {
      "type": "Feature",
      "properties": {
        "@id": "node/11040189502",
        "@relations": [
          {
            "role": "stop",
            "rel": 16079478,
            "reltags": {
              "colour": "#0E6938",
              "description": "From Jatimulya to Dukuh Atas",
              "from": "Jatimulya",
              "name": "Bekasi Line (Jatimulya → Dukuh Atas)",
              "name:id": "Lin Bekasi (Jatimulya → Dukuh Atas)",
              "network": "Jabodebek LRT",
              "operator": "PT Kereta Api Indonesia Divisi LRT Jabodebek",
              "public_transport:version": "2",
              "ref": "BK",
              "route": "light_rail",
              "to": "Dukuh Atas",
              "type": "route",
              "wikidata": "Q56390372",
              "wikipedia": "id:Lin Bekasi (LRT Jabodebek)"
            }
          }
        ]
      },
      "geometry": {
        "type": "Point",
        "coordinates": [
          106.8322652,
          -6.2216294
        ]
      },
      "id": "node/11040189502"
    },
    {
      "type": "Feature",
      "properties": {
        "@id": "node/11040189500",
        "@relations": [
          {
            "role": "stop",
            "rel": 16079478,
            "reltags": {
              "colour": "#0E6938",
              "description": "From Jatimulya to Dukuh Atas",
              "from": "Jatimulya",
              "name": "Bekasi Line (Jatimulya → Dukuh Atas)",
              "name:id": "Lin Bekasi (Jatimulya → Dukuh Atas)",
              "network": "Jabodebek LRT",
              "operator": "PT Kereta Api Indonesia Divisi LRT Jabodebek",
              "public_transport:version": "2",
              "ref": "BK",
              "route": "light_rail",
              "to": "Dukuh Atas",
              "type": "route",
              "wikidata": "Q56390372",
              "wikipedia": "id:Lin Bekasi (LRT Jabodebek)"
            }
          }
        ]
      },
      "geometry": {
        "type": "Point",
        "coordinates": [
          106.8255355,
          -6.2048049
        ]
      },
      "id": "node/11040189500"
    },
    {
      "type": "Feature",
      "properties": {
        "@id": "node/9124364689",
        "@relations": [
          {
            "role": "stop",
            "rel": 16079478,
            "reltags": {
              "colour": "#0E6938",
              "description": "From Jatimulya to Dukuh Atas",
              "from": "Jatimulya",
              "name": "Bekasi Line (Jatimulya → Dukuh Atas)",
              "name:id": "Lin Bekasi (Jatimulya → Dukuh Atas)",
              "network": "Jabodebek LRT",
              "operator": "PT Kereta Api Indonesia Divisi LRT Jabodebek",
              "public_transport:version": "2",
              "ref": "BK",
              "route": "light_rail",
              "to": "Dukuh Atas",
              "type": "route",
              "wikidata": "Q56390372",
              "wikipedia": "id:Lin Bekasi (LRT Jabodebek)"
            }
          }
        ]
      },
      "geometry": {
        "type": "Point",
        "coordinates": [
          106.8302513,
          -6.209339
        ]
      },
      "id": "node/9124364689"
    },
    {
      "type": "Feature",
      "properties": {
        "@id": "node/11040204407",
        "@relations": [
          {
            "role": "stop",
            "rel": 16079478,
            "reltags": {
              "colour": "#0E6938",
              "description": "From Jatimulya to Dukuh Atas",
              "from": "Jatimulya",
              "name": "Bekasi Line (Jatimulya → Dukuh Atas)",
              "name:id": "Lin Bekasi (Jatimulya → Dukuh Atas)",
              "network": "Jabodebek LRT",
              "operator": "PT Kereta Api Indonesia Divisi LRT Jabodebek",
              "public_transport:version": "2",
              "ref": "BK",
              "route": "light_rail",
              "to": "Dukuh Atas",
              "type": "route",
              "wikidata": "Q56390372",
              "wikipedia": "id:Lin Bekasi (LRT Jabodebek)"
            }
          }
        ]
      },
      "geometry": {
        "type": "Point",
        "coordinates": [
          106.8570718,
          -6.2434658
        ]
      },
      "id": "node/11040204407"
    },
    {
      "type": "Feature",
      "properties": {
        "@id": "node/9124369223",
        "@relations": [
          {
            "role": "stop",
            "rel": 16079478,
            "reltags": {
              "colour": "#0E6938",
              "description": "From Jatimulya to Dukuh Atas",
              "from": "Jatimulya",
              "name": "Bekasi Line (Jatimulya → Dukuh Atas)",
              "name:id": "Lin Bekasi (Jatimulya → Dukuh Atas)",
              "network": "Jabodebek LRT",
              "operator": "PT Kereta Api Indonesia Divisi LRT Jabodebek",
              "public_transport:version": "2",
              "ref": "BK",
              "route": "light_rail",
              "to": "Dukuh Atas",
              "type": "route",
              "wikidata": "Q56390372",
              "wikipedia": "id:Lin Bekasi (LRT Jabodebek)"
            }
          }
        ]
      },
      "geometry": {
        "type": "Point",
        "coordinates": [
          106.8639717,
          -6.2434297
        ]
      },
      "id": "node/9124369223"
    },
    {
      "type": "Feature",
      "properties": {
        "@id": "node/11040204409",
        "@relations": [
          {
            "role": "stop",
            "rel": 16079478,
            "reltags": {
              "colour": "#0E6938",
              "description": "From Jatimulya to Dukuh Atas",
              "from": "Jatimulya",
              "name": "Bekasi Line (Jatimulya → Dukuh Atas)",
              "name:id": "Lin Bekasi (Jatimulya → Dukuh Atas)",
              "network": "Jabodebek LRT",
              "operator": "PT Kereta Api Indonesia Divisi LRT Jabodebek",
              "public_transport:version": "2",
              "ref": "BK",
              "route": "light_rail",
              "to": "Dukuh Atas",
              "type": "route",
              "wikidata": "Q56390372",
              "wikipedia": "id:Lin Bekasi (LRT Jabodebek)"
            }
          }
        ]
      },
      "geometry": {
        "type": "Point",
        "coordinates": [
          106.8712341,
          -6.2458886
        ]
      },
      "id": "node/11040204409"
    },
    {
      "type": "Feature",
      "properties": {
        "@id": "node/11040189498",
        "@relations": [
          {
            "role": "stop",
            "rel": 16079478,
            "reltags": {
              "colour": "#0E6938",
              "description": "From Jatimulya to Dukuh Atas",
              "from": "Jatimulya",
              "name": "Bekasi Line (Jatimulya → Dukuh Atas)",
              "name:id": "Lin Bekasi (Jatimulya → Dukuh Atas)",
              "network": "Jabodebek LRT",
              "operator": "PT Kereta Api Indonesia Divisi LRT Jabodebek",
              "public_transport:version": "2",
              "ref": "BK",
              "route": "light_rail",
              "to": "Dukuh Atas",
              "type": "route",
              "wikidata": "Q56390372",
              "wikipedia": "id:Lin Bekasi (LRT Jabodebek)"
            }
          }
        ]
      },
      "geometry": {
        "type": "Point",
        "coordinates": [
          106.8872795,
          -6.245852
        ]
      },
      "id": "node/11040189498"
    },
    {
      "type": "Feature",
      "properties": {
        "@id": "node/12578386110",
        "@relations": [
          {
            "role": "stop",
            "rel": 16079478,
            "reltags": {
              "colour": "#0E6938",
              "description": "From Jatimulya to Dukuh Atas",
              "from": "Jatimulya",
              "name": "Bekasi Line (Jatimulya → Dukuh Atas)",
              "name:id": "Lin Bekasi (Jatimulya → Dukuh Atas)",
              "network": "Jabodebek LRT",
              "operator": "PT Kereta Api Indonesia Divisi LRT Jabodebek",
              "public_transport:version": "2",
              "ref": "BK",
              "route": "light_rail",
              "to": "Dukuh Atas",
              "type": "route",
              "wikidata": "Q56390372",
              "wikipedia": "id:Lin Bekasi (LRT Jabodebek)"
            }
          }
        ]
      },
      "geometry": {
        "type": "Point",
        "coordinates": [
          106.9279159,
          -6.257704
        ]
      },
      "id": "node/12578386110"
    },
    {
      "type": "Feature",
      "properties": {
        "@id": "node/11040189494",
        "@relations": [
          {
            "role": "stop",
            "rel": 16079478,
            "reltags": {
              "colour": "#0E6938",
              "description": "From Jatimulya to Dukuh Atas",
              "from": "Jatimulya",
              "name": "Bekasi Line (Jatimulya → Dukuh Atas)",
              "name:id": "Lin Bekasi (Jatimulya → Dukuh Atas)",
              "network": "Jabodebek LRT",
              "operator": "PT Kereta Api Indonesia Divisi LRT Jabodebek",
              "public_transport:version": "2",
              "ref": "BK",
              "route": "light_rail",
              "to": "Dukuh Atas",
              "type": "route",
              "wikidata": "Q56390372",
              "wikipedia": "id:Lin Bekasi (LRT Jabodebek)"
            }
          }
        ]
      },
      "geometry": {
        "type": "Point",
        "coordinates": [
          106.9518783,
          -6.2565806
        ]
      },
      "id": "node/11040189494"
    },
    {
      "type": "Feature",
      "properties": {
        "@id": "node/11040189492",
        "@relations": [
          {
            "role": "stop",
            "rel": 16079478,
            "reltags": {
              "colour": "#0E6938",
              "description": "From Jatimulya to Dukuh Atas",
              "from": "Jatimulya",
              "name": "Bekasi Line (Jatimulya → Dukuh Atas)",
              "name:id": "Lin Bekasi (Jatimulya → Dukuh Atas)",
              "network": "Jabodebek LRT",
              "operator": "PT Kereta Api Indonesia Divisi LRT Jabodebek",
              "public_transport:version": "2",
              "ref": "BK",
              "route": "light_rail",
              "to": "Dukuh Atas",
              "type": "route",
              "wikidata": "Q56390372",
              "wikipedia": "id:Lin Bekasi (LRT Jabodebek)"
            }
          }
        ]
      },
      "geometry": {
        "type": "Point",
        "coordinates": [
          106.96317,
          -6.2546488
        ]
      },
      "id": "node/11040189492"
    },
    {
      "type": "Feature",
      "properties": {
        "@id": "node/4982025827",
        "@relations": [
          {
            "role": "stop",
            "rel": 16079478,
            "reltags": {
              "colour": "#0E6938",
              "description": "From Jatimulya to Dukuh Atas",
              "from": "Jatimulya",
              "name": "Bekasi Line (Jatimulya → Dukuh Atas)",
              "name:id": "Lin Bekasi (Jatimulya → Dukuh Atas)",
              "network": "Jabodebek LRT",
              "operator": "PT Kereta Api Indonesia Divisi LRT Jabodebek",
              "public_transport:version": "2",
              "ref": "BK",
              "route": "light_rail",
              "to": "Dukuh Atas",
              "type": "route",
              "wikidata": "Q56390372",
              "wikipedia": "id:Lin Bekasi (LRT Jabodebek)"
            }
          }
        ]
      },
      "geometry": {
        "type": "Point",
        "coordinates": [
          106.9904367,
          -6.2529239
        ]
      },
      "id": "node/4982025827"
    },
    {
      "type": "Feature",
      "properties": {
        "@id": "node/11040189490",
        "@relations": [
          {
            "role": "stop",
            "rel": 16079478,
            "reltags": {
              "colour": "#0E6938",
              "description": "From Jatimulya to Dukuh Atas",
              "from": "Jatimulya",
              "name": "Bekasi Line (Jatimulya → Dukuh Atas)",
              "name:id": "Lin Bekasi (Jatimulya → Dukuh Atas)",
              "network": "Jabodebek LRT",
              "operator": "PT Kereta Api Indonesia Divisi LRT Jabodebek",
              "public_transport:version": "2",
              "ref": "BK",
              "route": "light_rail",
              "to": "Dukuh Atas",
              "type": "route",
              "wikidata": "Q56390372",
              "wikipedia": "id:Lin Bekasi (LRT Jabodebek)"
            }
          }
        ]
      },
      "geometry": {
        "type": "Point",
        "coordinates": [
          107.0216705,
          -6.2640876
        ]
      },
      "id": "node/11040189490"
    }
  ]
}