{
  "type": "FeatureCollection",
  "generator": "overpass-turbo",
  "copyright": "The data included in this document is from www.openstreetmap.org. The data is made available under ODbL.",
  "timestamp": "2026-05-02T09:29:06Z",
  "features": [
    {
      "type": "Feature",
      "properties": {
        "@id": "relation/16079479",
        "colour": "#0E6938",
        "description": "From Dukuh Atas to Jatimulya",
        "from": "Dukuh Atas",
        "name": "Bekasi Line (Dukuh Atas → Jatimulya)",
        "name:id": "Lin Bekasi (Dukuh Atas → Jatimulya)",
        "network": "Jabodebek LRT",
        "operator": "PT Kereta Api Indonesia Divisi LRT Jabodebek",
        "public_transport:version": "2",
        "ref": "BK",
        "route": "light_rail",
        "to": "Jatimulya",
        "type": "route",
        "wikidata": "Q56390372",
        "wikipedia": "id:Lin Bekasi (LRT Jabodebek)"
      },
      "geometry": {
        "type": "LineString",
        "coordinates": [
          [
            106.8255247,
            -6.2048511
          ],
          [
            106.826366,
            -6.2050271
          ],
          [
            106.8268403,
            -6.2051263
          ],
          [
            106.8271736,
            -6.2051909
          ],
          [
            106.8273892,
            -6.2052263
          ],
          [
            106.8277938,
            -6.205282
          ],
          [
            106.8279233,
            -6.2053061
          ],
          [
            106.8280454,
            -6.2053412
          ],
          [
            106.8281601,
            -6.2053871
          ],
          [
            106.8282735,
            -6.2054525
          ],
          [
            106.8283672,
            -6.2055283
          ],
          [
            106.8284462,
            -6.2056141
          ],
          [
            106.8285338,
            -6.2057505
          ],
          [
            106.828604,
            -6.2058894
          ],
          [
            106.8286647,
            -6.2060228
          ],
          [
            106.8287298,
            -6.2061401
          ],
          [
            106.8288455,
            -6.2063054
          ],
          [
            106.8289857,
            -6.2064723
          ],
          [
            106.8291178,
            -6.2066157
          ],
          [
            106.8292152,
            -6.2067403
          ],
          [
            106.8293211,
            -6.2069201
          ],
          [
            106.8295218,
            -6.207332
          ],
          [
            106.8296866,
            -6.2076933
          ],
          [
            106.8298133,
            -6.2079986
          ],
          [
            106.8299156,
            -6.2082785
          ],
          [
            106.830015,
            -6.2085742
          ],
          [
            106.8300791,
            -6.2087958
          ],
          [
            106.8301381,
            -6.2090399
          ],
          [
            106.8302046,
            -6.2093481
          ],
          [
            106.8302686,
            -6.2097029
          ],
          [
            106.830309,
            -6.2099764
          ],
          [
            106.8303605,
            -6.2104851
          ],
          [
            106.8304011,
            -6.2110213
          ],
          [
            106.8304172,
            -6.2112923
          ],
          [
            106.8304229,
            -6.2118348
          ],
          [
            106.8304043,
            -6.2126844
          ],
          [
            106.8304122,
            -6.2129547
          ],
          [
            106.8304295,
            -6.2132301
          ],
          [
            106.8306742,
            -6.21618
          ],
          [
            106.830701,
            -6.216442
          ],
          [
            106.8307497,
            -6.2167327
          ],
          [
            106.8308398,
            -6.2171773
          ],
          [
            106.8310379,
            -6.218067
          ],
          [
            106.8312024,
            -6.2186473
          ],
          [
            106.8314742,
            -6.2194958
          ],
          [
            106.8316174,
            -6.2198349
          ],
          [
            106.8319067,
            -6.220487
          ],
          [
            106.8319797,
            -6.2206608
          ],
          [
            106.8320321,
            -6.2208728
          ],
          [
            106.8320557,
            -6.2209883
          ],
          [
            106.83222,
            -6.2216446
          ],
          [
            106.8325308,
            -6.2228859
          ],
          [
            106.8327514,
            -6.2236436
          ],
          [
            106.8328049,
            -6.2238598
          ],
          [
            106.8328431,
            -6.2240561
          ],
          [
            106.8328676,
            -6.2242356
          ],
          [
            106.8328863,
            -6.2244439
          ],
          [
            106.8329738,
            -6.2257292
          ],
          [
            106.8329951,
            -6.2260267
          ],
          [
            106.8331817,
            -6.2287874
          ],
          [
            106.8332254,
            -6.2293488
          ],
          [
            106.833227,
            -6.229665
          ],
          [
            106.8332142,
            -6.229855
          ],
          [
            106.8331923,
            -6.2300416
          ],
          [
            106.8331567,
            -6.2302196
          ],
          [
            106.8330997,
            -6.2304165
          ],
          [
            106.8329555,
            -6.2309151
          ],
          [
            106.8328837,
            -6.2311294
          ],
          [
            106.8328284,
            -6.2312843
          ],
          [
            106.8327679,
            -6.2314389
          ],
          [
            106.8326883,
            -6.2315974
          ],
          [
            106.8325262,
            -6.2319284
          ],
          [
            106.8324567,
            -6.2320546
          ],
          [
            106.8323768,
            -6.2321871
          ],
          [
            106.8322841,
            -6.2323316
          ],
          [
            106.8321676,
            -6.2324932
          ],
          [
            106.8319988,
            -6.2326938
          ],
          [
            106.831824,
            -6.2329033
          ],
          [
            106.8316473,
            -6.2330993
          ],
          [
            106.8314811,
            -6.2332698
          ],
          [
            106.8311815,
            -6.2335322
          ],
          [
            106.8308596,
            -6.2337675
          ],
          [
            106.8305917,
            -6.2339454
          ],
          [
            106.8302687,
            -6.2341245
          ],
          [
            106.8292535,
            -6.234585
          ],
          [
            106.8289902,
            -6.2347189
          ],
          [
            106.8288647,
            -6.2347951
          ],
          [
            106.8287577,
            -6.2348654
          ],
          [
            106.828619,
            -6.2349704
          ],
          [
            106.8285054,
            -6.2350629
          ],
          [
            106.8284166,
            -6.2351426
          ],
          [
            106.8281995,
            -6.2353633
          ],
          [
            106.8280426,
            -6.2355389
          ],
          [
            106.8279165,
            -6.2356999
          ],
          [
            106.8278251,
            -6.2358343
          ],
          [
            106.827583,
            -6.2362119
          ],
          [
            106.8275183,
            -6.2363239
          ],
          [
            106.8274685,
            -6.2364294
          ],
          [
            106.8274258,
            -6.2365476
          ],
          [
            106.8273934,
            -6.2366751
          ],
          [
            106.8273802,
            -6.2368092
          ],
          [
            106.8273803,
            -6.2369181
          ],
          [
            106.8274026,
            -6.2370652
          ],
          [
            106.8274363,
            -6.2371792
          ],
          [
            106.8274862,
            -6.2373028
          ],
          [
            106.8275464,
            -6.2374074
          ],
          [
            106.8276196,
            -6.2375109
          ],
          [
            106.8277142,
            -6.2376123
          ],
          [
            106.8278186,
            -6.237695
          ],
          [
            106.8279479,
            -6.2377813
          ],
          [
            106.8283399,
            -6.2380214
          ],
          [
            106.8285556,
            -6.2381454
          ],
          [
            106.8287949,
            -6.2382738
          ],
          [
            106.829531,
            -6.2386291
          ],
          [
            106.829723,
            -6.2387289
          ],
          [
            106.8303192,
            -6.2390903
          ],
          [
            106.830702,
            -6.2393284
          ],
          [
            106.8309283,
            -6.2394736
          ],
          [
            106.8315271,
            -6.2398885
          ],
          [
            106.8317796,
            -6.2400538
          ],
          [
            106.831977,
            -6.2401697
          ],
          [
            106.8324444,
            -6.2404314
          ],
          [
            106.8326831,
            -6.2405576
          ],
          [
            106.8329275,
            -6.2406655
          ],
          [
            106.8331444,
            -6.2407487
          ],
          [
            106.833335,
            -6.2408117
          ],
          [
            106.8335467,
            -6.240873
          ],
          [
            106.8350273,
            -6.2412634
          ],
          [
            106.8361917,
            -6.2415527
          ],
          [
            106.83695,
            -6.2417425
          ],
          [
            106.8378185,
            -6.2419782
          ],
          [
            106.8385115,
            -6.2421686
          ],
          [
            106.8390817,
            -6.2423185
          ],
          [
            106.8399344,
            -6.2425499
          ],
          [
            106.840192,
            -6.2426239
          ],
          [
            106.8404829,
            -6.2427044
          ],
          [
            106.8412373,
            -6.2428992
          ],
          [
            106.8414358,
            -6.2429659
          ],
          [
            106.8416369,
            -6.2430417
          ],
          [
            106.8424266,
            -6.2433936
          ],
          [
            106.842634,
            -6.2434771
          ],
          [
            106.8428247,
            -6.2435402
          ],
          [
            106.8430233,
            -6.2436004
          ],
          [
            106.843259,
            -6.243645
          ],
          [
            106.8434727,
            -6.2436685
          ],
          [
            106.8460244,
            -6.2438049
          ],
          [
            106.846314,
            -6.2438041
          ],
          [
            106.846778,
            -6.2437889
          ],
          [
            106.84801,
            -6.2436703
          ],
          [
            106.8485075,
            -6.2436402
          ],
          [
            106.8488762,
            -6.243622
          ],
          [
            106.8496508,
            -6.2436037
          ],
          [
            106.8500329,
            -6.2435839
          ],
          [
            106.8519107,
            -6.2434577
          ],
          [
            106.8522804,
            -6.2434509
          ],
          [
            106.8556012,
            -6.2434632
          ],
          [
            106.857072,
            -6.2435043
          ],
          [
            106.8579256,
            -6.2435218
          ],
          [
            106.8582865,
            -6.2435287
          ],
          [
            106.8585572,
            -6.2435308
          ],
          [
            106.8588964,
            -6.2435351
          ],
          [
            106.8592647,
            -6.2435346
          ],
          [
            106.8597395,
            -6.2435288
          ],
          [
            106.8600673,
            -6.2435247
          ],
          [
            106.8607094,
            -6.2435083
          ],
          [
            106.8611041,
            -6.2434912
          ],
          [
            106.8616789,
            -6.2434633
          ],
          [
            106.8622424,
            -6.2434405
          ],
          [
            106.8627757,
            -6.2434223
          ],
          [
            106.863092,
            -6.2434241
          ],
          [
            106.8633979,
            -6.2434347
          ],
          [
            106.8636487,
            -6.2434438
          ],
          [
            106.8638045,
            -6.2434523
          ],
          [
            106.8639697,
            -6.2434643
          ],
          [
            106.8641018,
            -6.2434786
          ],
          [
            106.8641659,
            -6.2434873
          ],
          [
            106.8642295,
            -6.2434971
          ],
          [
            106.8645217,
            -6.2435465
          ],
          [
            106.8650436,
            -6.2436436
          ],
          [
            106.8652922,
            -6.2437051
          ],
          [
            106.8655419,
            -6.2437754
          ],
          [
            106.865802,
            -6.2438584
          ],
          [
            106.8667088,
            -6.2441707
          ],
          [
            106.8670568,
            -6.244301
          ],
          [
            106.8673736,
            -6.2444316
          ],
          [
            106.8695594,
            -6.2453671
          ],
          [
            106.86963,
            -6.2453984
          ],
          [
            106.8697709,
            -6.2454609
          ],
          [
            106.8700338,
            -6.2455669
          ],
          [
            106.8701555,
            -6.2456107
          ],
          [
            106.8703778,
            -6.2456861
          ],
          [
            106.8705317,
            -6.245735
          ],
          [
            106.8707509,
            -6.2457963
          ],
          [
            106.8712235,
            -6.245926
          ],
          [
            106.8723757,
            -6.2462225
          ],
          [
            106.872859,
            -6.2463535
          ],
          [
            106.8729611,
            -6.2463786
          ],
          [
            106.8733116,
            -6.2464611
          ],
          [
            106.87358,
            -6.2465401
          ],
          [
            106.8736716,
            -6.2465753
          ],
          [
            106.873739,
            -6.2466068
          ],
          [
            106.8738151,
            -6.2466425
          ],
          [
            106.8738866,
            -6.2466837
          ],
          [
            106.8745395,
            -6.2472439
          ],
          [
            106.8753787,
            -6.2479302
          ],
          [
            106.8756518,
            -6.2481571
          ],
          [
            106.8760693,
            -6.2485122
          ],
          [
            106.8762156,
            -6.2486341
          ],
          [
            106.8764034,
            -6.2487208
          ],
          [
            106.8765982,
            -6.2487959
          ],
          [
            106.8767735,
            -6.2488088
          ],
          [
            106.8769186,
            -6.2488003
          ],
          [
            106.8770846,
            -6.2487643
          ],
          [
            106.8772295,
            -6.2487156
          ],
          [
            106.877552,
            -6.248553
          ],
          [
            106.8785095,
            -6.2478677
          ],
          [
            106.8790161,
            -6.2475178
          ],
          [
            106.8791754,
            -6.2474254
          ],
          [
            106.8793255,
            -6.2473478
          ],
          [
            106.8793519,
            -6.2473341
          ],
          [
            106.8794618,
            -6.2472904
          ],
          [
            106.8795799,
            -6.2472435
          ],
          [
            106.8797831,
            -6.247189
          ],
          [
            106.8800801,
            -6.2471353
          ],
          [
            106.8803122,
            -6.2471262
          ],
          [
            106.8813749,
            -6.2471734
          ],
          [
            106.8833958,
            -6.2472813
          ],
          [
            106.8837585,
            -6.247286
          ],
          [
            106.8840472,
            -6.2472698
          ],
          [
            106.8845567,
            -6.2471917
          ],
          [
            106.8850355,
            -6.2470782
          ],
          [
            106.885446,
            -6.2469496
          ],
          [
            106.885865,
            -6.2467759
          ],
          [
            106.8865087,
            -6.2463997
          ],
          [
            106.8870928,
            -6.2460235
          ],
          [
            106.8872969,
            -6.2458773
          ],
          [
            106.8875569,
            -6.2456934
          ],
          [
            106.8880849,
            -6.2453082
          ],
          [
            106.8887789,
            -6.2448342
          ],
          [
            106.8892187,
            -6.2445384
          ],
          [
            106.8894647,
            -6.2443766
          ],
          [
            106.8897284,
            -6.2442289
          ],
          [
            106.8900392,
            -6.244085
          ],
          [
            106.890272,
            -6.2439992
          ],
          [
            106.8905012,
            -6.2439309
          ],
          [
            106.8907409,
            -6.2438647
          ],
          [
            106.8910252,
            -6.2437947
          ],
          [
            106.891457,
            -6.2437253
          ],
          [
            106.8923341,
            -6.2436322
          ],
          [
            106.8929217,
            -6.2436237
          ],
          [
            106.8934198,
            -6.2436745
          ],
          [
            106.8939137,
            -6.2437591
          ],
          [
            106.8945226,
            -6.2439369
          ],
          [
            106.8951996,
            -6.2441824
          ],
          [
            106.8958553,
            -6.2444829
          ],
          [
            106.8967068,
            -6.2449992
          ],
          [
            106.8974221,
            -6.2455241
          ],
          [
            106.8977968,
            -6.2458838
          ],
          [
            106.8984184,
            -6.2465526
          ],
          [
            106.8994932,
            -6.2480427
          ],
          [
            106.8998957,
            -6.2487388
          ],
          [
            106.9007975,
            -6.2503204
          ],
          [
            106.9012374,
            -6.2510656
          ],
          [
            106.9015432,
            -6.2515135
          ],
          [
            106.9018306,
            -6.2518817
          ],
          [
            106.9020536,
            -6.2521524
          ],
          [
            106.9023543,
            -6.2524919
          ],
          [
            106.9026737,
            -6.252812
          ],
          [
            106.9030519,
            -6.2531559
          ],
          [
            106.9033406,
            -6.2533994
          ],
          [
            106.9038566,
            -6.2537825
          ],
          [
            106.9041449,
            -6.2539771
          ],
          [
            106.9044814,
            -6.2541775
          ],
          [
            106.9049415,
            -6.2544397
          ],
          [
            106.9054383,
            -6.2546788
          ],
          [
            106.9063313,
            -6.2550061
          ],
          [
            106.9072398,
            -6.2552446
          ],
          [
            106.9076544,
            -6.2553961
          ],
          [
            106.9125945,
            -6.2574481
          ],
          [
            106.9131603,
            -6.257635
          ],
          [
            106.9138367,
            -6.2578123
          ],
          [
            106.9146822,
            -6.2580025
          ],
          [
            106.9150356,
            -6.2580656
          ],
          [
            106.9152734,
            -6.2581045
          ],
          [
            106.9158777,
            -6.2581541
          ],
          [
            106.9163649,
            -6.2581634
          ],
          [
            106.918143,
            -6.2582259
          ],
          [
            106.9197118,
            -6.2581837
          ],
          [
            106.921446,
            -6.2581195
          ],
          [
            106.9224115,
            -6.2580662
          ],
          [
            106.9248486,
            -6.2579075
          ],
          [
            106.9268709,
            -6.2578004
          ],
          [
            106.9279154,
            -6.2577426
          ],
          [
            106.936902,
            -6.2572912
          ],
          [
            106.9384425,
            -6.2572191
          ],
          [
            106.9403546,
            -6.2571265
          ],
          [
            106.9406878,
            -6.2570857
          ],
          [
            106.943021,
            -6.2567086
          ],
          [
            106.9433239,
            -6.2566854
          ],
          [
            106.9436232,
            -6.256685
          ],
          [
            106.9437836,
            -6.2566855
          ],
          [
            106.945749,
            -6.2568516
          ],
          [
            106.9459903,
            -6.2568679
          ],
          [
            106.946306,
            -6.2568683
          ],
          [
            106.9481606,
            -6.2567931
          ],
          [
            106.94972,
            -6.2567197
          ],
          [
            106.9518542,
            -6.2566172
          ],
          [
            106.9526804,
            -6.2565675
          ],
          [
            106.9541648,
            -6.2563389
          ],
          [
            106.9545047,
            -6.2563088
          ],
          [
            106.955394,
            -6.256262
          ],
          [
            106.9556656,
            -6.2562416
          ],
          [
            106.9560483,
            -6.2561868
          ],
          [
            106.9579401,
            -6.2558034
          ],
          [
            106.959197,
            -6.2555093
          ],
          [
            106.9594753,
            -6.2554678
          ],
          [
            106.9598096,
            -6.2554427
          ],
          [
            106.9607908,
            -6.2553937
          ],
          [
            106.9611072,
            -6.2553621
          ],
          [
            106.9613524,
            -6.2553232
          ],
          [
            106.9616326,
            -6.2552558
          ],
          [
            106.9618982,
            -6.2551743
          ],
          [
            106.9625137,
            -6.2549446
          ],
          [
            106.9631801,
            -6.2546804
          ],
          [
            106.965022,
            -6.2539574
          ],
          [
            106.9655749,
            -6.2536932
          ],
          [
            106.9679305,
            -6.2523267
          ],
          [
            106.9700139,
            -6.2509423
          ],
          [
            106.9706959,
            -6.2505244
          ],
          [
            106.9713488,
            -6.2501593
          ],
          [
            106.9718754,
            -6.2498991
          ],
          [
            106.9724612,
            -6.2496341
          ],
          [
            106.9732399,
            -6.2493232
          ],
          [
            106.9741212,
            -6.249038
          ],
          [
            106.9748681,
            -6.2488436
          ],
          [
            106.9755171,
            -6.2487086
          ],
          [
            106.9762465,
            -6.2486033
          ],
          [
            106.9770999,
            -6.2485183
          ],
          [
            106.9775771,
            -6.2485006
          ],
          [
            106.9788544,
            -6.2485093
          ],
          [
            106.9795357,
            -6.2485333
          ],
          [
            106.9798075,
            -6.2485576
          ],
          [
            106.9801191,
            -6.2485906
          ],
          [
            106.9807263,
            -6.2486874
          ],
          [
            106.9812954,
            -6.2488262
          ],
          [
            106.9822267,
            -6.2491188
          ],
          [
            106.9830796,
            -6.2494272
          ],
          [
            106.9854239,
            -6.250479
          ],
          [
            106.9868781,
            -6.2512607
          ],
          [
            106.9904133,
            -6.2529813
          ],
          [
            106.9943996,
            -6.2544716
          ],
          [
            107.0072049,
            -6.2590472
          ],
          [
            107.0083716,
            -6.2594891
          ],
          [
            107.0100929,
            -6.2600677
          ],
          [
            107.0183078,
            -6.2629649
          ],
          [
            107.0197679,
            -6.2634599
          ],
          [
            107.0205491,
            -6.2637343
          ],
          [
            107.0216652,
            -6.2641263
          ]
        ]
      },
      "id": "relation/16079479"
    },
    {
      "type": "Feature",
      "properties": {
        "@id": "node/11040204405",
        "@relations": [
          {
            "role": "stop",
            "rel": 16079479,
            "reltags": {
              "colour": "#0E6938",
              "description": "From Dukuh Atas to Jatimulya",
              "from": "Dukuh Atas",
              "name": "Bekasi Line (Dukuh Atas → Jatimulya)",
              "name:id": "Lin Bekasi (Dukuh Atas → Jatimulya)",
              "network": "Jabodebek LRT",
              "operator": "PT Kereta Api Indonesia Divisi LRT Jabodebek",
              "public_transport:version": "2",
              "ref": "BK",
              "route": "light_rail",
              "to": "Jatimulya",
              "type": "route",
              "wikidata": "Q56390372",
              "wikipedia": "id:Lin Bekasi (LRT Jabodebek)"
            }
          }
        ]
      },
      "geometry": {
        "type": "Point",
        "coordinates": [
          106.8385115,
          -6.2421686
        ]
      },
      "id": "node/11040204405"
    },
    {
      "type": "Feature",
      "properties": {
        "@id": "node/11040189504",
        "@relations": [
          {
            "role": "stop",
            "rel": 16079479,
            "reltags": {
              "colour": "#0E6938",
              "description": "From Dukuh Atas to Jatimulya",
              "from": "Dukuh Atas",
              "name": "Bekasi Line (Dukuh Atas → Jatimulya)",
              "name:id": "Lin Bekasi (Dukuh Atas → Jatimulya)",
              "network": "Jabodebek LRT",
              "operator": "PT Kereta Api Indonesia Divisi LRT Jabodebek",
              "public_transport:version": "2",
              "ref": "BK",
              "route": "light_rail",
              "to": "Jatimulya",
              "type": "route",
              "wikidata": "Q56390372",
              "wikipedia": "id:Lin Bekasi (LRT Jabodebek)"
            }
          }
        ]
      },
      "geometry": {
        "type": "Point",
        "coordinates": [
          106.8331817,
          -6.2287874
        ]
      },
      "id": "node/11040189504"
    },
    {
      "type": "Feature",
      "properties": {
        "@id": "node/11040189501",
        "@relations": [
          {
            "role": "stop",
            "rel": 16079479,
            "reltags": {
              "colour": "#0E6938",
              "description": "From Dukuh Atas to Jatimulya",
              "from": "Dukuh Atas",
              "name": "Bekasi Line (Dukuh Atas → Jatimulya)",
              "name:id": "Lin Bekasi (Dukuh Atas → Jatimulya)",
              "network": "Jabodebek LRT",
              "operator": "PT Kereta Api Indonesia Divisi LRT Jabodebek",
              "public_transport:version": "2",
              "ref": "BK",
              "route": "light_rail",
              "to": "Jatimulya",
              "type": "route",
              "wikidata": "Q56390372",
              "wikipedia": "id:Lin Bekasi (LRT Jabodebek)"
            }
          }
        ]
      },
      "geometry": {
        "type": "Point",
        "coordinates": [
          106.83222,
          -6.2216446
        ]
      },
      "id": "node/11040189501"
    },
    {
      "type": "Feature",
      "properties": {
        "@id": "node/9124369263",
        "@relations": [
          {
            "role": "stop",
            "rel": 16079479,
            "reltags": {
              "colour": "#0E6938",
              "description": "From Dukuh Atas to Jatimulya",
              "from": "Dukuh Atas",
              "name": "Bekasi Line (Dukuh Atas → Jatimulya)",
              "name:id": "Lin Bekasi (Dukuh Atas → Jatimulya)",
              "network": "Jabodebek LRT",
              "operator": "PT Kereta Api Indonesia Divisi LRT Jabodebek",
              "public_transport:version": "2",
              "ref": "BK",
              "route": "light_rail",
              "to": "Jatimulya",
              "type": "route",
              "wikidata": "Q56390372",
              "wikipedia": "id:Lin Bekasi (LRT Jabodebek)"
            }
          }
        ]
      },
      "geometry": {
        "type": "Point",
        "coordinates": [
          106.8302046,
          -6.2093481
        ]
      },
      "id": "node/9124369263"
    },
    {
      "type": "Feature",
      "properties": {
        "@id": "node/11040189499",
        "@relations": [
          {
            "role": "stop",
            "rel": 16079479,
            "reltags": {
              "colour": "#0E6938",
              "description": "From Dukuh Atas to Jatimulya",
              "from": "Dukuh Atas",
              "name": "Bekasi Line (Dukuh Atas → Jatimulya)",
              "name:id": "Lin Bekasi (Dukuh Atas → Jatimulya)",
              "network": "Jabodebek LRT",
              "operator": "PT Kereta Api Indonesia Divisi LRT Jabodebek",
              "public_transport:version": "2",
              "ref": "BK",
              "route": "light_rail",
              "to": "Jatimulya",
              "type": "route",
              "wikidata": "Q56390372",
              "wikipedia": "id:Lin Bekasi (LRT Jabodebek)"
            }
          }
        ]
      },
      "geometry": {
        "type": "Point",
        "coordinates": [
          106.8255247,
          -6.2048511
        ]
      },
      "id": "node/11040189499"
    },
    {
      "type": "Feature",
      "properties": {
        "@id": "node/11040204408",
        "@relations": [
          {
            "role": "stop",
            "rel": 16079479,
            "reltags": {
              "colour": "#0E6938",
              "description": "From Dukuh Atas to Jatimulya",
              "from": "Dukuh Atas",
              "name": "Bekasi Line (Dukuh Atas → Jatimulya)",
              "name:id": "Lin Bekasi (Dukuh Atas → Jatimulya)",
              "network": "Jabodebek LRT",
              "operator": "PT Kereta Api Indonesia Divisi LRT Jabodebek",
              "public_transport:version": "2",
              "ref": "BK",
              "route": "light_rail",
              "to": "Jatimulya",
              "type": "route",
              "wikidata": "Q56390372",
              "wikipedia": "id:Lin Bekasi (LRT Jabodebek)"
            }
          }
        ]
      },
      "geometry": {
        "type": "Point",
        "coordinates": [
          106.857072,
          -6.2435043
        ]
      },
      "id": "node/11040204408"
    },
    {
      "type": "Feature",
      "properties": {
        "@id": "node/9124369397",
        "@relations": [
          {
            "role": "stop",
            "rel": 16079479,
            "reltags": {
              "colour": "#0E6938",
              "description": "From Dukuh Atas to Jatimulya",
              "from": "Dukuh Atas",
              "name": "Bekasi Line (Dukuh Atas → Jatimulya)",
              "name:id": "Lin Bekasi (Dukuh Atas → Jatimulya)",
              "network": "Jabodebek LRT",
              "operator": "PT Kereta Api Indonesia Divisi LRT Jabodebek",
              "public_transport:version": "2",
              "ref": "BK",
              "route": "light_rail",
              "to": "Jatimulya",
              "type": "route",
              "wikidata": "Q56390372",
              "wikipedia": "id:Lin Bekasi (LRT Jabodebek)"
            }
          }
        ]
      },
      "geometry": {
        "type": "Point",
        "coordinates": [
          106.8639697,
          -6.2434643
        ]
      },
      "id": "node/9124369397"
    },
    {
      "type": "Feature",
      "properties": {
        "@id": "node/11040204410",
        "@relations": [
          {
            "role": "stop",
            "rel": 16079479,
            "reltags": {
              "colour": "#0E6938",
              "description": "From Dukuh Atas to Jatimulya",
              "from": "Dukuh Atas",
              "name": "Bekasi Line (Dukuh Atas → Jatimulya)",
              "name:id": "Lin Bekasi (Dukuh Atas → Jatimulya)",
              "network": "Jabodebek LRT",
              "operator": "PT Kereta Api Indonesia Divisi LRT Jabodebek",
              "public_transport:version": "2",
              "ref": "BK",
              "route": "light_rail",
              "to": "Jatimulya",
              "type": "route",
              "wikidata": "Q56390372",
              "wikipedia": "id:Lin Bekasi (LRT Jabodebek)"
            }
          }
        ]
      },
      "geometry": {
        "type": "Point",
        "coordinates": [
          106.8712235,
          -6.245926
        ]
      },
      "id": "node/11040204410"
    },
    {
      "type": "Feature",
      "properties": {
        "@id": "node/11040189497",
        "@relations": [
          {
            "role": "stop",
            "rel": 16079479,
            "reltags": {
              "colour": "#0E6938",
              "description": "From Dukuh Atas to Jatimulya",
              "from": "Dukuh Atas",
              "name": "Bekasi Line (Dukuh Atas → Jatimulya)",
              "name:id": "Lin Bekasi (Dukuh Atas → Jatimulya)",
              "network": "Jabodebek LRT",
              "operator": "PT Kereta Api Indonesia Divisi LRT Jabodebek",
              "public_transport:version": "2",
              "ref": "BK",
              "route": "light_rail",
              "to": "Jatimulya",
              "type": "route",
              "wikidata": "Q56390372",
              "wikipedia": "id:Lin Bekasi (LRT Jabodebek)"
            }
          }
        ]
      },
      "geometry": {
        "type": "Point",
        "coordinates": [
          106.8872969,
          -6.2458773
        ]
      },
      "id": "node/11040189497"
    },
    {
      "type": "Feature",
      "properties": {
        "@id": "node/11040189495",
        "@relations": [
          {
            "role": "stop",
            "rel": 16079479,
            "reltags": {
              "colour": "#0E6938",
              "description": "From Dukuh Atas to Jatimulya",
              "from": "Dukuh Atas",
              "name": "Bekasi Line (Dukuh Atas → Jatimulya)",
              "name:id": "Lin Bekasi (Dukuh Atas → Jatimulya)",
              "network": "Jabodebek LRT",
              "operator": "PT Kereta Api Indonesia Divisi LRT Jabodebek",
              "public_transport:version": "2",
              "ref": "BK",
              "route": "light_rail",
              "to": "Jatimulya",
              "type": "route",
              "wikidata": "Q56390372",
              "wikipedia": "id:Lin Bekasi (LRT Jabodebek)"
            }
          }
        ]
      },
      "geometry": {
        "type": "Point",
        "coordinates": [
          106.9279154,
          -6.2577426
        ]
      },
      "id": "node/11040189495"
    },
    {
      "type": "Feature",
      "properties": {
        "@id": "node/11040189493",
        "@relations": [
          {
            "role": "stop",
            "rel": 16079479,
            "reltags": {
              "colour": "#0E6938",
              "description": "From Dukuh Atas to Jatimulya",
              "from": "Dukuh Atas",
              "name": "Bekasi Line (Dukuh Atas → Jatimulya)",
              "name:id": "Lin Bekasi (Dukuh Atas → Jatimulya)",
              "network": "Jabodebek LRT",
              "operator": "PT Kereta Api Indonesia Divisi LRT Jabodebek",
              "public_transport:version": "2",
              "ref": "BK",
              "route": "light_rail",
              "to": "Jatimulya",
              "type": "route",
              "wikidata": "Q56390372",
              "wikipedia": "id:Lin Bekasi (LRT Jabodebek)"
            }
          }
        ]
      },
      "geometry": {
        "type": "Point",
        "coordinates": [
          106.9518542,
          -6.2566172
        ]
      },
      "id": "node/11040189493"
    },
    {
      "type": "Feature",
      "properties": {
        "@id": "node/11040189491",
        "@relations": [
          {
            "role": "stop",
            "rel": 16079479,
            "reltags": {
              "colour": "#0E6938",
              "description": "From Dukuh Atas to Jatimulya",
              "from": "Dukuh Atas",
              "name": "Bekasi Line (Dukuh Atas → Jatimulya)",
              "name:id": "Lin Bekasi (Dukuh Atas → Jatimulya)",
              "network": "Jabodebek LRT",
              "operator": "PT Kereta Api Indonesia Divisi LRT Jabodebek",
              "public_transport:version": "2",
              "ref": "BK",
              "route": "light_rail",
              "to": "Jatimulya",
              "type": "route",
              "wikidata": "Q56390372",
              "wikipedia": "id:Lin Bekasi (LRT Jabodebek)"
            }
          }
        ]
      },
      "geometry": {
        "type": "Point",
        "coordinates": [
          106.9631801,
          -6.2546804
        ]
      },
      "id": "node/11040189491"
    },
    {
      "type": "Feature",
      "properties": {
        "@id": "node/4909917394",
        "@relations": [
          {
            "role": "stop",
            "rel": 16079479,
            "reltags": {
              "colour": "#0E6938",
              "description": "From Dukuh Atas to Jatimulya",
              "from": "Dukuh Atas",
              "name": "Bekasi Line (Dukuh Atas → Jatimulya)",
              "name:id": "Lin Bekasi (Dukuh Atas → Jatimulya)",
              "network": "Jabodebek LRT",
              "operator": "PT Kereta Api Indonesia Divisi LRT Jabodebek",
              "public_transport:version": "2",
              "ref": "BK",
              "route": "light_rail",
              "to": "Jatimulya",
              "type": "route",
              "wikidata": "Q56390372",
              "wikipedia": "id:Lin Bekasi (LRT Jabodebek)"
            }
          }
        ]
      },
      "geometry": {
        "type": "Point",
        "coordinates": [
          106.9904133,
          -6.2529813
        ]
      },
      "id": "node/4909917394"
    },
    {
      "type": "Feature",
      "properties": {
        "@id": "node/11040189489",
        "@relations": [
          {
            "role": "stop",
            "rel": 16079479,
            "reltags": {
              "colour": "#0E6938",
              "description": "From Dukuh Atas to Jatimulya",
              "from": "Dukuh Atas",
              "name": "Bekasi Line (Dukuh Atas → Jatimulya)",
              "name:id": "Lin Bekasi (Dukuh Atas → Jatimulya)",
              "network": "Jabodebek LRT",
              "operator": "PT Kereta Api Indonesia Divisi LRT Jabodebek",
              "public_transport:version": "2",
              "ref": "BK",
              "route": "light_rail",
              "to": "Jatimulya",
              "type": "route",
              "wikidata": "Q56390372",
              "wikipedia": "id:Lin Bekasi (LRT Jabodebek)"
            }
          }
        ]
      },
      "geometry": {
        "type": "Point",
        "coordinates": [
          107.0216652,
          -6.2641263
        ]
      },
      "id": "node/11040189489"
    }
  ]
}