{
  "type": "FeatureCollection",
  "generator": "overpass-turbo",
  "copyright": "The data included in this document is from www.openstreetmap.org. The data is made available under ODbL.",
  "timestamp": "2026-05-02T09:33:15Z",
  "features": [
    {
      "type": "Feature",
      "properties": {
        "@id": "relation/16036441",
        "colour": "#20409A",
        "from": "Harjamukti",
        "name": "Cibubur Line (Harjamukti → Dukuh Atas)",
        "name:id": "Lin Cibubur (Harjamukti → Dukuh Atas)",
        "network": "Jabodebek LRT",
        "operator": "Kereta Api Indonesia Divisi LRT Jabodebek",
        "public_transport:version": "2",
        "ref": "CB",
        "route": "light_rail",
        "to": "Dukuh Atas",
        "type": "route",
        "wikidata": "Q56390365"
      },
      "geometry": {
        "type": "LineString",
        "coordinates": [
          [
            106.8956864,
            -6.3738897
          ],
          [
            106.8955752,
            -6.373282
          ],
          [
            106.895417,
            -6.372453
          ],
          [
            106.895256,
            -6.371536
          ],
          [
            106.8951809,
            -6.3710428
          ],
          [
            106.8950039,
            -6.3697873
          ],
          [
            106.8947008,
            -6.3679587
          ],
          [
            106.8946096,
            -6.3674229
          ],
          [
            106.8945613,
            -6.367199
          ],
          [
            106.8944836,
            -6.3669377
          ],
          [
            106.8942234,
            -6.36625
          ],
          [
            106.8941483,
            -6.3660367
          ],
          [
            106.8940866,
            -6.3658022
          ],
          [
            106.894041,
            -6.3655276
          ],
          [
            106.8937352,
            -6.3632564
          ],
          [
            106.8935153,
            -6.3615824
          ],
          [
            106.8932176,
            -6.359855
          ],
          [
            106.892716,
            -6.3569467
          ],
          [
            106.8926355,
            -6.3565335
          ],
          [
            106.8924156,
            -6.3556005
          ],
          [
            106.89226,
            -6.3550407
          ],
          [
            106.8917316,
            -6.3532227
          ],
          [
            106.8912166,
            -6.3514526
          ],
          [
            106.890876,
            -6.3502024
          ],
          [
            106.890699,
            -6.3495413
          ],
          [
            106.8900204,
            -6.3470861
          ],
          [
            106.8898648,
            -6.3465237
          ],
          [
            106.8898058,
            -6.3462491
          ],
          [
            106.889264,
            -6.3433727
          ],
          [
            106.889044,
            -6.3421758
          ],
          [
            106.8886605,
            -6.3401604
          ],
          [
            106.8884405,
            -6.3390035
          ],
          [
            106.8883413,
            -6.3386063
          ],
          [
            106.8882233,
            -6.3382011
          ],
          [
            106.8880972,
            -6.3377639
          ],
          [
            106.8880221,
            -6.3374813
          ],
          [
            106.8879658,
            -6.3371507
          ],
          [
            106.8870612,
            -6.3316181
          ],
          [
            106.8869774,
            -6.3309726
          ],
          [
            106.8868867,
            -6.3299266
          ],
          [
            106.8868226,
            -6.3291279
          ],
          [
            106.8868011,
            -6.3282789
          ],
          [
            106.8867305,
            -6.326931
          ],
          [
            106.8867192,
            -6.3264524
          ],
          [
            106.886671,
            -6.324364
          ],
          [
            106.8866634,
            -6.3237692
          ],
          [
            106.8866567,
            -6.3231319
          ],
          [
            106.8866427,
            -6.321209
          ],
          [
            106.8866025,
            -6.3192798
          ],
          [
            106.8865446,
            -6.3186499
          ],
          [
            106.8864277,
            -6.3177697
          ],
          [
            106.8863291,
            -6.3170977
          ],
          [
            106.8862512,
            -6.3166209
          ],
          [
            106.8859851,
            -6.3151271
          ],
          [
            106.8858213,
            -6.3143642
          ],
          [
            106.8855302,
            -6.3129861
          ],
          [
            106.8854176,
            -6.3125544
          ],
          [
            106.8851914,
            -6.3117343
          ],
          [
            106.885149,
            -6.3116273
          ],
          [
            106.8851065,
            -6.3115303
          ],
          [
            106.8850712,
            -6.3114803
          ],
          [
            106.8849768,
            -6.3112765
          ],
          [
            106.8847322,
            -6.3108354
          ],
          [
            106.8846814,
            -6.3107312
          ],
          [
            106.8846454,
            -6.31065
          ],
          [
            106.8846134,
            -6.3105707
          ],
          [
            106.8845874,
            -6.3104941
          ],
          [
            106.8845659,
            -6.310417
          ],
          [
            106.884524,
            -6.3102151
          ],
          [
            106.8844039,
            -6.3095464
          ],
          [
            106.8842917,
            -6.3088886
          ],
          [
            106.8841319,
            -6.3079422
          ],
          [
            106.8839382,
            -6.3069053
          ],
          [
            106.8839276,
            -6.3067852
          ],
          [
            106.8839226,
            -6.3066145
          ],
          [
            106.8839264,
            -6.3064724
          ],
          [
            106.8839701,
            -6.3062927
          ],
          [
            106.8841533,
            -6.3058821
          ],
          [
            106.8845655,
            -6.3050202
          ],
          [
            106.8846618,
            -6.3047895
          ],
          [
            106.8847069,
            -6.304627
          ],
          [
            106.8847195,
            -6.3043847
          ],
          [
            106.8846973,
            -6.3042319
          ],
          [
            106.8846441,
            -6.3040728
          ],
          [
            106.8845871,
            -6.3039475
          ],
          [
            106.8844688,
            -6.3037718
          ],
          [
            106.8841948,
            -6.3034489
          ],
          [
            106.8840698,
            -6.3032705
          ],
          [
            106.8839815,
            -6.3031019
          ],
          [
            106.8839391,
            -6.3029729
          ],
          [
            106.8838994,
            -6.3027831
          ],
          [
            106.8838613,
            -6.3025657
          ],
          [
            106.8837921,
            -6.3021518
          ],
          [
            106.8834679,
            -6.3003971
          ],
          [
            106.8833944,
            -6.3000681
          ],
          [
            106.8833033,
            -6.2997031
          ],
          [
            106.8831568,
            -6.2992287
          ],
          [
            106.8828208,
            -6.2985087
          ],
          [
            106.8820437,
            -6.296604
          ],
          [
            106.8819453,
            -6.2963459
          ],
          [
            106.8816268,
            -6.2955516
          ],
          [
            106.8807924,
            -6.2934784
          ],
          [
            106.8805779,
            -6.2929044
          ],
          [
            106.8803925,
            -6.2923962
          ],
          [
            106.8800127,
            -6.2913934
          ],
          [
            106.8798878,
            -6.2910064
          ],
          [
            106.8795757,
            -6.2900927
          ],
          [
            106.8793445,
            -6.2894142
          ],
          [
            106.8791318,
            -6.2887892
          ],
          [
            106.8788471,
            -6.2880517
          ],
          [
            106.8786706,
            -6.2875974
          ],
          [
            106.8784597,
            -6.2870232
          ],
          [
            106.8783616,
            -6.2867915
          ],
          [
            106.8782893,
            -6.2866263
          ],
          [
            106.878065,
            -6.2862388
          ],
          [
            106.8778061,
            -6.2857959
          ],
          [
            106.8776803,
            -6.2855823
          ],
          [
            106.8775287,
            -6.2852556
          ],
          [
            106.8770606,
            -6.2843308
          ],
          [
            106.8768115,
            -6.2837255
          ],
          [
            106.8751419,
            -6.2797989
          ],
          [
            106.8745862,
            -6.278427
          ],
          [
            106.8741531,
            -6.2773504
          ],
          [
            106.8736951,
            -6.2759626
          ],
          [
            106.8733424,
            -6.2744109
          ],
          [
            106.8731975,
            -6.2737633
          ],
          [
            106.8731493,
            -6.2735244
          ],
          [
            106.8731171,
            -6.2732444
          ],
          [
            106.873107,
            -6.2729125
          ],
          [
            106.8730447,
            -6.2720513
          ],
          [
            106.8730216,
            -6.271269
          ],
          [
            106.8730061,
            -6.2707352
          ],
          [
            106.8730048,
            -6.2701664
          ],
          [
            106.8730311,
            -6.2695478
          ],
          [
            106.8730866,
            -6.2689179
          ],
          [
            106.8734218,
            -6.2670921
          ],
          [
            106.8734631,
            -6.2667235
          ],
          [
            106.8734615,
            -6.2661761
          ],
          [
            106.8733881,
            -6.2655681
          ],
          [
            106.8732756,
            -6.2646721
          ],
          [
            106.8732458,
            -6.2642629
          ],
          [
            106.8732721,
            -6.2637519
          ],
          [
            106.8735074,
            -6.2599309
          ],
          [
            106.8735128,
            -6.2595942
          ],
          [
            106.8734991,
            -6.2591172
          ],
          [
            106.8734406,
            -6.2587391
          ],
          [
            106.8731738,
            -6.2573513
          ],
          [
            106.8731318,
            -6.2571753
          ],
          [
            106.8730749,
            -6.25703
          ],
          [
            106.8729535,
            -6.2568734
          ],
          [
            106.8728077,
            -6.2567091
          ],
          [
            106.8720212,
            -6.2561218
          ],
          [
            106.871946,
            -6.2560329
          ],
          [
            106.8718465,
            -6.2558893
          ],
          [
            106.8717716,
            -6.2557515
          ],
          [
            106.8717063,
            -6.2555883
          ],
          [
            106.8716809,
            -6.2554247
          ],
          [
            106.8716784,
            -6.255281
          ],
          [
            106.8716966,
            -6.2550871
          ],
          [
            106.8717562,
            -6.2548982
          ],
          [
            106.8725575,
            -6.2528437
          ],
          [
            106.8726699,
            -6.2525489
          ],
          [
            106.8728888,
            -6.2521485
          ],
          [
            106.8730426,
            -6.251902
          ],
          [
            106.8731686,
            -6.251725
          ],
          [
            106.8734505,
            -6.2514108
          ],
          [
            106.8738158,
            -6.2510625
          ],
          [
            106.8743244,
            -6.2505793
          ],
          [
            106.8746515,
            -6.2502622
          ],
          [
            106.8750043,
            -6.2499307
          ],
          [
            106.8752826,
            -6.2496741
          ],
          [
            106.8754614,
            -6.2494846
          ],
          [
            106.8756651,
            -6.2492283
          ],
          [
            106.8757204,
            -6.2491267
          ],
          [
            106.8757818,
            -6.2490026
          ],
          [
            106.8758185,
            -6.2488841
          ],
          [
            106.8758372,
            -6.2487678
          ],
          [
            106.8758346,
            -6.2486485
          ],
          [
            106.8758239,
            -6.2485384
          ],
          [
            106.8757875,
            -6.2484064
          ],
          [
            106.8757319,
            -6.2482974
          ],
          [
            106.8756518,
            -6.2481571
          ],
          [
            106.8754023,
            -6.2479146
          ],
          [
            106.8745597,
            -6.247212
          ],
          [
            106.8739294,
            -6.2466628
          ],
          [
            106.8738902,
            -6.2466305
          ],
          [
            106.8738307,
            -6.246592
          ],
          [
            106.8737619,
            -6.2465602
          ],
          [
            106.8736799,
            -6.2465303
          ],
          [
            106.8735983,
            -6.2465044
          ],
          [
            106.8733144,
            -6.2464281
          ],
          [
            106.8729055,
            -6.2463331
          ],
          [
            106.8719864,
            -6.2460909
          ],
          [
            106.8712341,
            -6.2458886
          ],
          [
            106.8705942,
            -6.2457114
          ],
          [
            106.8704111,
            -6.2456578
          ],
          [
            106.8703003,
            -6.2456251
          ],
          [
            106.8701188,
            -6.2455629
          ],
          [
            106.8699691,
            -6.2455068
          ],
          [
            106.8697843,
            -6.2454314
          ],
          [
            106.869225,
            -6.245178
          ],
          [
            106.8680299,
            -6.2446752
          ],
          [
            106.8673921,
            -6.244388
          ],
          [
            106.8670743,
            -6.244257
          ],
          [
            106.866725,
            -6.2441262
          ],
          [
            106.8658171,
            -6.2438135
          ],
          [
            106.8655557,
            -6.2437301
          ],
          [
            106.8653085,
            -6.2436661
          ],
          [
            106.8650521,
            -6.2436096
          ],
          [
            106.8647854,
            -6.2435591
          ],
          [
            106.8645356,
            -6.2435113
          ],
          [
            106.8643998,
            -6.2434865
          ],
          [
            106.8642428,
            -6.2434607
          ],
          [
            106.8641323,
            -6.2434457
          ],
          [
            106.8640531,
            -6.2434371
          ],
          [
            106.8639717,
            -6.2434297
          ],
          [
            106.8638854,
            -6.2434224
          ],
          [
            106.8638105,
            -6.2434167
          ],
          [
            106.8637304,
            -6.243412
          ],
          [
            106.8636494,
            -6.2434085
          ],
          [
            106.8633981,
            -6.2433997
          ],
          [
            106.8630402,
            -6.2433864
          ],
          [
            106.8627763,
            -6.2433833
          ],
          [
            106.8622748,
            -6.2433981
          ],
          [
            106.8616536,
            -6.2434218
          ],
          [
            106.8612314,
            -6.2434448
          ],
          [
            106.8606467,
            -6.243472
          ],
          [
            106.8600674,
            -6.2434889
          ],
          [
            106.8592753,
            -6.2434976
          ],
          [
            106.8589245,
            -6.2434981
          ],
          [
            106.8582228,
            -6.2434923
          ],
          [
            106.8579312,
            -6.2434887
          ],
          [
            106.8570718,
            -6.2434658
          ],
          [
            106.8563322,
            -6.2434397
          ],
          [
            106.8555973,
            -6.243424
          ],
          [
            106.85228,
            -6.2434036
          ],
          [
            106.8519132,
            -6.2434327
          ],
          [
            106.8500436,
            -6.2435553
          ],
          [
            106.8496572,
            -6.243575
          ],
          [
            106.8488895,
            -6.2435933
          ],
          [
            106.8485146,
            -6.2436071
          ],
          [
            106.8480111,
            -6.2436424
          ],
          [
            106.8468411,
            -6.2437549
          ],
          [
            106.8463125,
            -6.2437743
          ],
          [
            106.8460173,
            -6.2437628
          ],
          [
            106.8434849,
            -6.243631
          ],
          [
            106.8433292,
            -6.2436138
          ],
          [
            106.8430445,
            -6.2435614
          ],
          [
            106.8428353,
            -6.2435057
          ],
          [
            106.8426377,
            -6.2434394
          ],
          [
            106.8424431,
            -6.2433642
          ],
          [
            106.8416499,
            -6.2430054
          ],
          [
            106.8414541,
            -6.2429318
          ],
          [
            106.8412479,
            -6.2428679
          ],
          [
            106.8405088,
            -6.2426862
          ],
          [
            106.8402087,
            -6.2426044
          ],
          [
            106.8391763,
            -6.2422919
          ],
          [
            106.8385223,
            -6.2421132
          ],
          [
            106.8378177,
            -6.2419302
          ],
          [
            106.8369617,
            -6.2417074
          ],
          [
            106.8365386,
            -6.2416029
          ],
          [
            106.835039,
            -6.2412176
          ],
          [
            106.8335595,
            -6.2408274
          ],
          [
            106.8333492,
            -6.2407665
          ],
          [
            106.8331605,
            -6.2407042
          ],
          [
            106.8329457,
            -6.2406218
          ],
          [
            106.832704,
            -6.240515
          ],
          [
            106.8324673,
            -6.2403899
          ],
          [
            106.8320008,
            -6.2401287
          ],
          [
            106.8318048,
            -6.2400137
          ],
          [
            106.8315538,
            -6.2398493
          ],
          [
            106.8309548,
            -6.2394343
          ],
          [
            106.8307275,
            -6.2392885
          ],
          [
            106.8303442,
            -6.2390501
          ],
          [
            106.8297464,
            -6.2386877
          ],
          [
            106.8295524,
            -6.2385869
          ],
          [
            106.8288166,
            -6.2382317
          ],
          [
            106.8285788,
            -6.2381041
          ],
          [
            106.8283643,
            -6.2379801
          ],
          [
            106.8280826,
            -6.23781
          ],
          [
            106.8279738,
            -6.2377422
          ],
          [
            106.8278467,
            -6.2376568
          ],
          [
            106.8277467,
            -6.2375775
          ],
          [
            106.8276567,
            -6.2374811
          ],
          [
            106.8275866,
            -6.237382
          ],
          [
            106.8275291,
            -6.2372821
          ],
          [
            106.8274813,
            -6.2371637
          ],
          [
            106.8274492,
            -6.237055
          ],
          [
            106.8274279,
            -6.2369145
          ],
          [
            106.8274278,
            -6.2368115
          ],
          [
            106.8274404,
            -6.2366832
          ],
          [
            106.8274714,
            -6.2365614
          ],
          [
            106.8275125,
            -6.2364475
          ],
          [
            106.8275617,
            -6.2363427
          ],
          [
            106.8276237,
            -6.2362364
          ],
          [
            106.8278649,
            -6.2358603
          ],
          [
            106.827955,
            -6.2357277
          ],
          [
            106.8280792,
            -6.2355692
          ],
          [
            106.8282343,
            -6.2353956
          ],
          [
            106.8284496,
            -6.2351767
          ],
          [
            106.8285364,
            -6.2350988
          ],
          [
            106.8286485,
            -6.2350075
          ],
          [
            106.8287853,
            -6.234904
          ],
          [
            106.8288902,
            -6.234835
          ],
          [
            106.8290135,
            -6.2347602
          ],
          [
            106.8292742,
            -6.2346276
          ],
          [
            106.8302902,
            -6.2341667
          ],
          [
            106.8306165,
            -6.2339858
          ],
          [
            106.8308869,
            -6.2338062
          ],
          [
            106.8312114,
            -6.2335691
          ],
          [
            106.831514,
            -6.2333041
          ],
          [
            106.8316821,
            -6.2331316
          ],
          [
            106.83186,
            -6.2329342
          ],
          [
            106.8320363,
            -6.2327229
          ],
          [
            106.8321925,
            -6.2325111
          ],
          [
            106.8323136,
            -6.2323469
          ],
          [
            106.8324047,
            -6.2322059
          ],
          [
            106.8324897,
            -6.2320724
          ],
          [
            106.8325672,
            -6.2319399
          ],
          [
            106.8327163,
            -6.2315998
          ],
          [
            106.8327909,
            -6.2314511
          ],
          [
            106.8328602,
            -6.2312938
          ],
          [
            106.8329136,
            -6.2311363
          ],
          [
            106.8329858,
            -6.2309218
          ],
          [
            106.8331398,
            -6.2304245
          ],
          [
            106.8331948,
            -6.2302234
          ],
          [
            106.8332275,
            -6.2300428
          ],
          [
            106.8332533,
            -6.2298558
          ],
          [
            106.8332711,
            -6.2296635
          ],
          [
            106.8332601,
            -6.2293378
          ],
          [
            106.8332233,
            -6.2287823
          ],
          [
            106.8330363,
            -6.226066
          ],
          [
            106.8330108,
            -6.2257328
          ],
          [
            106.8329184,
            -6.2244418
          ],
          [
            106.8329027,
            -6.2242321
          ],
          [
            106.8328769,
            -6.2240428
          ],
          [
            106.8328364,
            -6.2238536
          ],
          [
            106.8327855,
            -6.2236297
          ],
          [
            106.8324916,
            -6.2225336
          ],
          [
            106.8322652,
            -6.2216294
          ],
          [
            106.8321016,
            -6.2209757
          ],
          [
            106.8320722,
            -6.2208631
          ],
          [
            106.8320128,
            -6.2206456
          ],
          [
            106.8319361,
            -6.2204639
          ],
          [
            106.8316419,
            -6.2198103
          ],
          [
            106.8315048,
            -6.2194837
          ],
          [
            106.8312145,
            -6.2185842
          ],
          [
            106.8310751,
            -6.2180519
          ],
          [
            106.8308783,
            -6.217141
          ],
          [
            106.8308018,
            -6.2167275
          ],
          [
            106.8307502,
            -6.2164452
          ],
          [
            106.8307216,
            -6.2161745
          ],
          [
            106.830477,
            -6.2132268
          ],
          [
            106.8304597,
            -6.2129525
          ],
          [
            106.8304519,
            -6.2126842
          ],
          [
            106.8304705,
            -6.2118351
          ],
          [
            106.8304648,
            -6.2112907
          ],
          [
            106.8304486,
            -6.2110181
          ],
          [
            106.8304079,
            -6.210481
          ],
          [
            106.8303562,
            -6.2099706
          ],
          [
            106.8303156,
            -6.2096953
          ],
          [
            106.8302513,
            -6.209339
          ],
          [
            106.8301845,
            -6.2090294
          ],
          [
            106.8301251,
            -6.2087837
          ],
          [
            106.8300605,
            -6.2085602
          ],
          [
            106.8299605,
            -6.2082629
          ],
          [
            106.8298577,
            -6.2079815
          ],
          [
            106.8297303,
            -6.2076745
          ],
          [
            106.8295649,
            -6.2073119
          ],
          [
            106.8293631,
            -6.2068978
          ],
          [
            106.8292547,
            -6.2067137
          ],
          [
            106.8291542,
            -6.2065852
          ],
          [
            106.8290215,
            -6.2064411
          ],
          [
            106.8288834,
            -6.2062767
          ],
          [
            106.8287703,
            -6.2061151
          ],
          [
            106.8287073,
            -6.2060016
          ],
          [
            106.828647,
            -6.205869
          ],
          [
            106.8285752,
            -6.2057271
          ],
          [
            106.8284841,
            -6.2055852
          ],
          [
            106.8283999,
            -6.2054938
          ],
          [
            106.8283006,
            -6.2054135
          ],
          [
            106.828181,
            -6.2053445
          ],
          [
            106.8280609,
            -6.2052964
          ],
          [
            106.8279343,
            -6.20526
          ],
          [
            106.8278014,
            -6.2052353
          ],
          [
            106.8273963,
            -6.2051795
          ],
          [
            106.827182,
            -6.2051443
          ],
          [
            106.8268498,
            -6.2050799
          ],
          [
            106.826757,
            -6.2050605
          ],
          [
            106.8255355,
            -6.2048049
          ]
        ]
      },
      "id": "relation/16036441"
    },
    {
      "type": "Feature",
      "properties": {
        "@id": "node/11040189467",
        "@relations": [
          {
            "role": "stop",
            "rel": 16036441,
            "reltags": {
              "colour": "#20409A",
              "from": "Harjamukti",
              "name": "Cibubur Line (Harjamukti → Dukuh Atas)",
              "name:id": "Lin Cibubur (Harjamukti → Dukuh Atas)",
              "network": "Jabodebek LRT",
              "operator": "Kereta Api Indonesia Divisi LRT Jabodebek",
              "public_transport:version": "2",
              "ref": "CB",
              "route": "light_rail",
              "to": "Dukuh Atas",
              "type": "route",
              "wikidata": "Q56390365"
            }
          }
        ]
      },
      "geometry": {
        "type": "Point",
        "coordinates": [
          106.8956864,
          -6.3738897
        ]
      },
      "id": "node/11040189467"
    },
    {
      "type": "Feature",
      "properties": {
        "@id": "node/12578386108",
        "@relations": [
          {
            "role": "stop",
            "rel": 16036441,
            "reltags": {
              "colour": "#20409A",
              "from": "Harjamukti",
              "name": "Cibubur Line (Harjamukti → Dukuh Atas)",
              "name:id": "Lin Cibubur (Harjamukti → Dukuh Atas)",
              "network": "Jabodebek LRT",
              "operator": "Kereta Api Indonesia Divisi LRT Jabodebek",
              "public_transport:version": "2",
              "ref": "CB",
              "route": "light_rail",
              "to": "Dukuh Atas",
              "type": "route",
              "wikidata": "Q56390365"
            }
          }
        ]
      },
      "geometry": {
        "type": "Point",
        "coordinates": [
          106.8866634,
          -6.3237692
        ]
      },
      "id": "node/12578386108"
    },
    {
      "type": "Feature",
      "properties": {
        "@id": "node/11040189485",
        "@relations": [
          {
            "role": "stop",
            "rel": 16036441,
            "reltags": {
              "colour": "#20409A",
              "from": "Harjamukti",
              "name": "Cibubur Line (Harjamukti → Dukuh Atas)",
              "name:id": "Lin Cibubur (Harjamukti → Dukuh Atas)",
              "network": "Jabodebek LRT",
              "operator": "Kereta Api Indonesia Divisi LRT Jabodebek",
              "public_transport:version": "2",
              "ref": "CB",
              "route": "light_rail",
              "to": "Dukuh Atas",
              "type": "route",
              "wikidata": "Q56390365"
            }
          }
        ]
      },
      "geometry": {
        "type": "Point",
        "coordinates": [
          106.8844039,
          -6.3095464
        ]
      },
      "id": "node/11040189485"
    },
    {
      "type": "Feature",
      "properties": {
        "@id": "node/11040189487",
        "@relations": [
          {
            "role": "stop",
            "rel": 16036441,
            "reltags": {
              "colour": "#20409A",
              "from": "Harjamukti",
              "name": "Cibubur Line (Harjamukti → Dukuh Atas)",
              "name:id": "Lin Cibubur (Harjamukti → Dukuh Atas)",
              "network": "Jabodebek LRT",
              "operator": "Kereta Api Indonesia Divisi LRT Jabodebek",
              "public_transport:version": "2",
              "ref": "CB",
              "route": "light_rail",
              "to": "Dukuh Atas",
              "type": "route",
              "wikidata": "Q56390365"
            }
          }
        ]
      },
      "geometry": {
        "type": "Point",
        "coordinates": [
          106.8805779,
          -6.2929044
        ]
      },
      "id": "node/11040189487"
    },
    {
      "type": "Feature",
      "properties": {
        "@id": "node/11040204406",
        "@relations": [
          {
            "role": "stop",
            "rel": 16036441,
            "reltags": {
              "colour": "#20409A",
              "from": "Harjamukti",
              "name": "Cibubur Line (Harjamukti → Dukuh Atas)",
              "name:id": "Lin Cibubur (Harjamukti → Dukuh Atas)",
              "network": "Jabodebek LRT",
              "operator": "Kereta Api Indonesia Divisi LRT Jabodebek",
              "public_transport:version": "2",
              "ref": "CB",
              "route": "light_rail",
              "to": "Dukuh Atas",
              "type": "route",
              "wikidata": "Q56390365"
            }
          }
        ]
      },
      "geometry": {
        "type": "Point",
        "coordinates": [
          106.8385223,
          -6.2421132
        ]
      },
      "id": "node/11040204406"
    },
    {
      "type": "Feature",
      "properties": {
        "@id": "node/11040189503",
        "@relations": [
          {
            "role": "stop",
            "rel": 16036441,
            "reltags": {
              "colour": "#20409A",
              "from": "Harjamukti",
              "name": "Cibubur Line (Harjamukti → Dukuh Atas)",
              "name:id": "Lin Cibubur (Harjamukti → Dukuh Atas)",
              "network": "Jabodebek LRT",
              "operator": "Kereta Api Indonesia Divisi LRT Jabodebek",
              "public_transport:version": "2",
              "ref": "CB",
              "route": "light_rail",
              "to": "Dukuh Atas",
              "type": "route",
              "wikidata": "Q56390365"
            }
          }
        ]
      },
      "geometry": {
        "type": "Point",
        "coordinates": [
          106.8332233,
          -6.2287823
        ]
      },
      "id": "node/11040189503"
    },
    {
      "type": "Feature",
      "properties": {
        "@id": "node/11040189502",
        "@relations": [
          {
            "role": "stop",
            "rel": 16036441,
            "reltags": {
              "colour": "#20409A",
              "from": "Harjamukti",
              "name": "Cibubur Line (Harjamukti → Dukuh Atas)",
              "name:id": "Lin Cibubur (Harjamukti → Dukuh Atas)",
              "network": "Jabodebek LRT",
              "operator": "Kereta Api Indonesia Divisi LRT Jabodebek",
              "public_transport:version": "2",
              "ref": "CB",
              "route": "light_rail",
              "to": "Dukuh Atas",
              "type": "route",
              "wikidata": "Q56390365"
            }
          }
        ]
      },
      "geometry": {
        "type": "Point",
        "coordinates": [
          106.8322652,
          -6.2216294
        ]
      },
      "id": "node/11040189502"
    },
    {
      "type": "Feature",
      "properties": {
        "@id": "node/11040189500",
        "@relations": [
          {
            "role": "stop",
            "rel": 16036441,
            "reltags": {
              "colour": "#20409A",
              "from": "Harjamukti",
              "name": "Cibubur Line (Harjamukti → Dukuh Atas)",
              "name:id": "Lin Cibubur (Harjamukti → Dukuh Atas)",
              "network": "Jabodebek LRT",
              "operator": "Kereta Api Indonesia Divisi LRT Jabodebek",
              "public_transport:version": "2",
              "ref": "CB",
              "route": "light_rail",
              "to": "Dukuh Atas",
              "type": "route",
              "wikidata": "Q56390365"
            }
          }
        ]
      },
      "geometry": {
        "type": "Point",
        "coordinates": [
          106.8255355,
          -6.2048049
        ]
      },
      "id": "node/11040189500"
    },
    {
      "type": "Feature",
      "properties": {
        "@id": "node/9124364689",
        "@relations": [
          {
            "role": "stop",
            "rel": 16036441,
            "reltags": {
              "colour": "#20409A",
              "from": "Harjamukti",
              "name": "Cibubur Line (Harjamukti → Dukuh Atas)",
              "name:id": "Lin Cibubur (Harjamukti → Dukuh Atas)",
              "network": "Jabodebek LRT",
              "operator": "Kereta Api Indonesia Divisi LRT Jabodebek",
              "public_transport:version": "2",
              "ref": "CB",
              "route": "light_rail",
              "to": "Dukuh Atas",
              "type": "route",
              "wikidata": "Q56390365"
            }
          }
        ]
      },
      "geometry": {
        "type": "Point",
        "coordinates": [
          106.8302513,
          -6.209339
        ]
      },
      "id": "node/9124364689"
    },
    {
      "type": "Feature",
      "properties": {
        "@id": "node/11040204407",
        "@relations": [
          {
            "role": "stop",
            "rel": 16036441,
            "reltags": {
              "colour": "#20409A",
              "from": "Harjamukti",
              "name": "Cibubur Line (Harjamukti → Dukuh Atas)",
              "name:id": "Lin Cibubur (Harjamukti → Dukuh Atas)",
              "network": "Jabodebek LRT",
              "operator": "Kereta Api Indonesia Divisi LRT Jabodebek",
              "public_transport:version": "2",
              "ref": "CB",
              "route": "light_rail",
              "to": "Dukuh Atas",
              "type": "route",
              "wikidata": "Q56390365"
            }
          }
        ]
      },
      "geometry": {
        "type": "Point",
        "coordinates": [
          106.8570718,
          -6.2434658
        ]
      },
      "id": "node/11040204407"
    },
    {
      "type": "Feature",
      "properties": {
        "@id": "node/9124369223",
        "@relations": [
          {
            "role": "stop",
            "rel": 16036441,
            "reltags": {
              "colour": "#20409A",
              "from": "Harjamukti",
              "name": "Cibubur Line (Harjamukti → Dukuh Atas)",
              "name:id": "Lin Cibubur (Harjamukti → Dukuh Atas)",
              "network": "Jabodebek LRT",
              "operator": "Kereta Api Indonesia Divisi LRT Jabodebek",
              "public_transport:version": "2",
              "ref": "CB",
              "route": "light_rail",
              "to": "Dukuh Atas",
              "type": "route",
              "wikidata": "Q56390365"
            }
          }
        ]
      },
      "geometry": {
        "type": "Point",
        "coordinates": [
          106.8639717,
          -6.2434297
        ]
      },
      "id": "node/9124369223"
    },
    {
      "type": "Feature",
      "properties": {
        "@id": "node/11040204409",
        "@relations": [
          {
            "role": "stop",
            "rel": 16036441,
            "reltags": {
              "colour": "#20409A",
              "from": "Harjamukti",
              "name": "Cibubur Line (Harjamukti → Dukuh Atas)",
              "name:id": "Lin Cibubur (Harjamukti → Dukuh Atas)",
              "network": "Jabodebek LRT",
              "operator": "Kereta Api Indonesia Divisi LRT Jabodebek",
              "public_transport:version": "2",
              "ref": "CB",
              "route": "light_rail",
              "to": "Dukuh Atas",
              "type": "route",
              "wikidata": "Q56390365"
            }
          }
        ]
      },
      "geometry": {
        "type": "Point",
        "coordinates": [
          106.8712341,
          -6.2458886
        ]
      },
      "id": "node/11040204409"
    }
  ]
}